{"type":"FeatureCollection","features":[{"type":"Feature","geometry":{"type":"LineString","coordinates":[[80.5555401,16.434],[80.5555154,16.434392],[80.5554906,16.434871],[80.5554722,16.4353498],[80.5554609,16.4358285],[80.5554572,16.4363071],[80.5554614,16.4367855],[80.5554737,16.4372638],[80.5554939,16.4377419],[80.555522,16.4382198],[80.5555573,16.4386977],[80.5555993,16.4391753],[80.5556472,16.4396529],[80.5557001,16.4401304],[80.5557569,16.4406078],[80.5558164,16.4410851],[80.5558774,16.4415624],[80.5559387,16.4420398],[80.5559991,16.4425171],[80.5560571,16.4429945],[80.5561118,16.4434719],[80.5561619,16.4439494],[80.5562066,16.4444271],[80.5562448,16.4449048],[80.556276,16.4453827],[80.5562996,16.4458607],[80.5563153,16.4463389],[80.5563229,16.4468173],[80.5563225,16.4472958],[80.5563143,16.4477745],[80.5562988,16.4482532],[80.5562767,16.4487322],[80.5562486,16.4492112],[80.5562156,16.4496903],[80.5561787,16.4501696],[80.556139,16.4506488],[80.5560979,16.4511281],[80.5560564,16.4516074],[80.5560233,16.452]]},"properties":{"name":"Mangalagiri \u2013 Tadepalli Road","road_class":"state","width_m":18.0,"source":"synthetic"}},{"type":"Feature","geometry":{"type":"LineString","coordinates":[[80.545,16.4415501],[80.5455794,16.4415636],[80.5461588,16.4415717],[80.546738,16.441574],[80.5473172,16.4415703],[80.5478963,16.4415605],[80.5484754,16.4415447],[80.5490543,16.4415229],[80.5496332,16.4414957],[80.5502119,16.4414633],[80.5507907,16.4414266],[80.5513693,16.4413861],[80.551948,16.4413427],[80.5525265,16.4412972],[80.5531051,16.4412506],[80.5536837,16.4412039],[80.5542623,16.441158],[80.5548409,16.4411137],[80.5554195,16.4410722],[80.5559982,16.441034],[80.556577,16.4410001],[80.5571558,16.4409711],[80.5577347,16.4409474],[80.5583137,16.4409295],[80.5588928,16.4409176],[80.559472,16.4409118],[80.5600512,16.4409121],[80.5606306,16.4409183],[80.56121,16.4409299],[80.5617895,16.4409467],[80.562369,16.4409678],[80.5629486,16.4409927],[80.5635283,16.4410205],[80.564108,16.4410504],[80.5646877,16.4410813],[80.5652674,16.4411125],[80.5658471,16.4411428],[80.5664267,16.4411714],[80.567,16.4411971]]},"properties":{"name":"Nidamarru Road","road_class":"district","width_m":12.0,"source":"synthetic"}},{"type":"Feature","geometry":{"type":"LineString","coordinates":[[80.5630051,16.452],[80.5630078,16.4519963],[80.5631496,16.4518033],[80.5632907,16.4516099],[80.5634298,16.4514153],[80.5635658,16.451219],[80.5636976,16.4510203],[80.5638246,16.4508188],[80.5639463,16.4506143],[80.5640623,16.4504065],[80.5641728,16.4501956],[80.5642782,16.4499817],[80.5643792,16.4497653],[80.5644767,16.4495469],[80.5645718,16.4493272],[80.5646658,16.4491068],[80.5647601,16.4488866],[80.5648559,16.4486673],[80.5649546,16.4484496],[80.5650574,16.4482342],[80.565165,16.4480217],[80.5652782,16.4478123],[80.5653974,16.4476064],[80.5655227,16.4474039],[80.5656539,16.4472048],[80.5657904,16.4470088],[80.5659314,16.4468153],[80.5660759,16.4466239],[80.5662229,16.4464338],[80.5663709,16.4462444],[80.5665187,16.4460548],[80.566665,16.4458644],[80.5668087,16.4456725],[80.5669487,16.4454785],[80.567,16.4454042]]},"properties":{"name":"NH-16 service corridor","road_class":"national","width_m":30.0,"source":"synthetic"}},{"type":"Feature","geometry":{"type":"LineString","coordinates":[[80.5471901,16.4411768],[80.5471589,16.4414603],[80.5471256,16.4417437],[80.5470909,16.442027],[80.547056,16.4423102],[80.5470217,16.4425936],[80.5469891,16.442877],[80.5469592,16.4431606],[80.5469326,16.4434444],[80.54691,16.4437286],[80.5468918,16.444013],[80.5468781,16.4442977],[80.5468687,16.4445828],[80.5468634,16.4448681],[80.5468616,16.4451537],[80.5468625,16.4454394],[80.5468651,16.4457253],[80.5468685,16.4460112],[80.5468715,16.4462972],[80.5468731,16.446583],[80.5468723,16.4468686],[80.5468681,16.447154],[80.5468599,16.4474391],[80.5468472,16.4477239],[80.5468296,16.4480084],[80.5468071,16.4482925],[80.5467799,16.4485763],[80.5467485,16.4488599],[80.5467136,16.4491431],[80.5466759,16.4494262],[80.5466364,16.4497091],[80.5465962,16.449992],[80.5465563,16.4502749],[80.5465177,16.4505579],[80.5464814,16.4508411],[80.546448,16.4511245],[80.5464182,16.4514081],[80.5463923,16.451692],[80.5463705,16.4519761],[80.5463689,16.452]]},"properties":{"name":"Village Road 1","road_class":"village","width_m":8.0,"source":"synthetic"}},{"type":"Feature","geometry":{"type":"LineString","coordinates":[[80.5499508,16.434],[80.5499447,16.4340979],[80.5499272,16.4344361],[80.549913,16.4347744],[80.5499023,16.4351129],[80.5498949,16.4354515],[80.5498907,16.4357902],[80.5498896,16.436129],[80.5498911,16.4364679],[80.5498951,16.4368068],[80.5499009,16.4371459],[80.5499082,16.437485],[80.5499165,16.4378241],[80.5499252,16.4381633],[80.5499338,16.4385024],[80.5499418,16.4388416],[80.5499486,16.4391807],[80.5499537,16.4395197],[80.5499568,16.4398586],[80.5499574,16.4401975],[80.5499551,16.4405363],[80.5499498,16.4408749],[80.5499412,16.4412135],[80.5499291,16.4415519],[80.5499137,16.4418901],[80.5498948,16.4422283],[80.5498728,16.4425664],[80.5498477,16.4429043],[80.54982,16.4432421],[80.5497898,16.4435799],[80.5497578,16.4439176],[80.5497243,16.4442552],[80.5496898,16.4445928],[80.5496549,16.4449304],[80.5496201,16.445268],[80.5495859,16.4456056],[80.5495529,16.4459432],[80.5495215,16.4462809],[80.5494922,16.4466187],[80.5494654,16.4469566]]},"properties":{"name":"Village Road 2","road_class":"village","width_m":8.0,"source":"synthetic"}},{"type":"Feature","geometry":{"type":"LineString","coordinates":[[80.5531972,16.434],[80.5531826,16.4343849],[80.5531666,16.434863],[80.5531528,16.4353412],[80.5531414,16.4358195],[80.5531323,16.4362978],[80.5531255,16.4367761],[80.5531209,16.4372545],[80.5531184,16.437733],[80.5531177,16.4382115],[80.5531186,16.43869],[80.5531208,16.4391685],[80.553124,16.4396471],[80.5531278,16.4401256],[80.5531319,16.4406042],[80.5531359,16.4410828],[80.5531394,16.4415614],[80.5531421,16.4420399],[80.5531437,16.4425184],[80.5531437,16.4429969],[80.5531421,16.4434754],[80.5531385,16.4439538],[80.5531327,16.4444322],[80.5531247,16.4449105],[80.5531144,16.4453888],[80.5531017,16.445867],[80.5530867,16.4463451],[80.5530695,16.4468233],[80.5530502,16.4473014],[80.5530291,16.4477794],[80.5530065,16.4482574],[80.5529825,16.4487354],[80.5529575,16.4492134],[80.552932,16.4496913],[80.5529061,16.4501692],[80.5528803,16.4506472],[80.5528551,16.4511251],[80.5528306,16.4516031],[80.5528112,16.452]]},"properties":{"name":"Village Road 3","road_class":"village","width_m":8.0,"source":"synthetic"}},{"type":"Feature","geometry":{"type":"LineString","coordinates":[[80.5581994,16.434],[80.5581958,16.4341178],[80.5581873,16.434457],[80.5581808,16.4347961],[80.5581769,16.4351351],[80.5581761,16.435474],[80.5581785,16.4358128],[80.5581846,16.4361514],[80.5581944,16.43649],[80.558208,16.4368284],[80.5582255,16.4371666],[80.5582466,16.4375048],[80.5582712,16.4378428],[80.558299,16.4381807],[80.5583297,16.4385185],[80.5583627,16.4388562],[80.5583976,16.4391938],[80.5584338,16.4395314],[80.5584708,16.439869],[80.558508,16.4402066],[80.5585448,16.4405441],[80.5585805,16.4408818],[80.5586146,16.4412194],[80.5586466,16.4415572],[80.558676,16.441895],[80.5587024,16.442233],[80.5587255,16.442571],[80.558745,16.4429092],[80.5587608,16.4432475],[80.5587727,16.443586],[80.5587808,16.4439246],[80.5587852,16.4442633],[80.5587861,16.4446022],[80.5587839,16.4449411],[80.5587788,16.4452802],[80.5587713,16.4456193],[80.5587619,16.4459585],[80.5587512,16.4462977],[80.5587398,16.446637],[80.5587282,16.4469763]]},"properties":{"name":"Village Road 4","road_class":"village","width_m":8.0,"source":"synthetic"}},{"type":"Feature","geometry":{"type":"LineString","coordinates":[[80.56084,16.434],[80.5608377,16.4341217],[80.5608281,16.4344602],[80.5608155,16.4347987],[80.5608001,16.4351373],[80.5607825,16.4354758],[80.5607631,16.4358144],[80.5607425,16.436153],[80.5607213,16.4364915],[80.5607,16.4368301],[80.5606793,16.4371687],[80.5606597,16.4375073],[80.5606417,16.4378458],[80.560626,16.4381844],[80.5606128,16.4385229],[80.5606027,16.4388614],[80.5605958,16.4391998],[80.5605926,16.4395383],[80.560593,16.4398767],[80.5605973,16.4402151],[80.5606052,16.4405535],[80.5606167,16.4408918],[80.5606316,16.4412301],[80.5606496,16.4415684],[80.5606703,16.4419067],[80.5606932,16.4422449],[80.5607179,16.4425832],[80.5607437,16.4429214],[80.5607703,16.4432597],[80.5607968,16.4435979],[80.5608229,16.4439361],[80.5608478,16.4442744],[80.560871,16.4446126],[80.5608921,16.4449509],[80.5609105,16.4452892],[80.560926,16.4456275],[80.5609381,16.4459658],[80.5609466,16.4463042],[80.5609515,16.4466426],[80.5609526,16.446981]]},"properties":{"name":"Village Road 5","road_class":"village","width_m":8.0,"source":"synthetic"}},{"type":"Feature","geometry":{"type":"LineString","coordinates":[[80.56468,16.4412138],[80.5646485,16.4413568],[80.5646162,16.4414997],[80.5645834,16.4416426],[80.5645508,16.4417855],[80.564519,16.4419284],[80.5644884,16.4420714],[80.5644595,16.4422145],[80.5644329,16.4423578],[80.5644089,16.4425013],[80.5643879,16.4426449],[80.5643701,16.4427887],[80.5643557,16.4429328],[80.5643449,16.4430771],[80.5643376,16.4432217],[80.5643338,16.4433664],[80.5643333,16.4435114],[80.5643359,16.4436566],[80.5643413,16.443802],[80.5643491,16.4439475],[80.5643588,16.4440931],[80.56437,16.4442389],[80.5643822,16.4443847],[80.5643947,16.4445305],[80.5644071,16.4446763],[80.5644187,16.4448221],[80.5644291,16.4449678],[80.5644377,16.4451133],[80.5644441,16.4452588],[80.5644479,16.445404],[80.5644487,16.4455491],[80.5644463,16.4456939],[80.5644405,16.4458386],[80.5644311,16.445983],[80.5644181,16.4461271],[80.5644017,16.4462711],[80.564382,16.4464148],[80.5643592,16.4465583],[80.5643335,16.4467017],[80.5643055,16.4468449],[80.5642756,16.4469879]]},"properties":{"name":"Village Road 6","road_class":"village","width_m":8.0,"source":"synthetic"}},{"type":"Feature","geometry":{"type":"LineString","coordinates":[[80.5505045,16.4363874],[80.5506421,16.4364035],[80.5507797,16.4364196],[80.5509173,16.4364353],[80.5510549,16.4364501],[80.5511926,16.4364638],[80.5513302,16.436476],[80.5514679,16.4364865],[80.5516055,16.4364951],[80.5517432,16.4365015],[80.551881,16.4365056],[80.5520187,16.4365074],[80.5521565,16.4365069],[80.5522942,16.4365041],[80.5524321,16.436499],[80.5525699,16.4364919],[80.5527077,16.436483],[80.5528456,16.4364725],[80.5529835,16.4364606],[80.5531213,16.4364478],[80.5532592,16.4364343],[80.5533971,16.4364206],[80.553535,16.4364069],[80.5536729,16.4363937],[80.5538108,16.4363813],[80.5539486,16.4363701],[80.5540865,16.4363603],[80.5542243,16.4363522],[80.5543621,16.4363461],[80.5544999,16.4363421],[80.5546377,16.4363404],[80.5547755,16.436341],[80.5549132,16.436344],[80.5550509,16.4363493],[80.5551886,16.4363567],[80.5553263,16.4363663],[80.5554639,16.4363776],[80.5556016,16.4363906],[80.5557392,16.4364049],[80.5558768,16.4364202],[80.5560144,16.4364361]]},"properties":{"name":"Cross Road 1","road_class":"village","width_m":8.0,"source":"synthetic"}},{"type":"Feature","geometry":{"type":"LineString","coordinates":[[80.550498,16.4391912],[80.5506363,16.439194],[80.5507747,16.4391975],[80.5509131,16.4392015],[80.5510514,16.4392056],[80.5511898,16.4392097],[80.5513282,16.4392134],[80.5514665,16.4392165],[80.5516048,16.4392187],[80.551743,16.4392198],[80.5518811,16.4392196],[80.5520192,16.4392179],[80.5521572,16.4392147],[80.5522951,16.4392097],[80.5524328,16.439203],[80.5525705,16.4391945],[80.5527081,16.4391844],[80.5528456,16.4391725],[80.5529831,16.4391592],[80.5531204,16.4391445],[80.5532577,16.4391286],[80.5533949,16.4391117],[80.5535321,16.4390942],[80.5536693,16.4390761],[80.5538064,16.4390579],[80.5539436,16.4390397],[80.5540808,16.439022],[80.554218,16.4390048],[80.5543553,16.4389885],[80.5544926,16.4389733],[80.55463,16.4389594],[80.5547674,16.438947],[80.554905,16.4389362],[80.5550427,16.4389271],[80.5551804,16.4389197],[80.5553183,16.4389141],[80.5554562,16.4389102],[80.5555942,16.4389079],[80.5557323,16.4389072],[80.5558705,16.4389078],[80.5560088,16.4389096]]},"properties":{"name":"Cross Road 2","road_class":"village","width_m":8.0,"source":"synthetic"}},{"type":"Feature","geometry":{"type":"LineString","coordinates":[[80.5555565,16.4439495],[80.555857,16.4439728],[80.5561576,16.4439938],[80.5564581,16.444012],[80.5567587,16.4440269],[80.5570592,16.4440381],[80.5573598,16.4440454],[80.5576604,16.4440487],[80.557961,16.4440478],[80.5582616,16.4440429],[80.5585622,16.444034],[80.5588628,16.4440213],[80.5591634,16.4440053],[80.559464,16.4439863],[80.5597647,16.4439648],[80.5600653,16.4439413],[80.5603659,16.4439164],[80.5606666,16.4438909],[80.5609672,16.4438652],[80.5612679,16.4438401],[80.5615685,16.4438161],[80.5618691,16.443794],[80.5621697,16.4437742],[80.5624704,16.4437573],[80.562771,16.4437436],[80.5630716,16.4437336],[80.5633722,16.4437275],[80.5636728,16.4437254],[80.5639734,16.4437275],[80.5642739,16.4437337],[80.5645745,16.4437438],[80.564875,16.4437577],[80.5651756,16.4437749],[80.5654761,16.4437952],[80.5657767,16.4438179],[80.5660772,16.4438426],[80.5663777,16.4438686],[80.5666782,16.4438954],[80.5669788,16.4439223],[80.567,16.4439242]]},"properties":{"name":"Cross Road 3","road_class":"village","width_m":8.0,"source":"synthetic"}},{"type":"Feature","geometry":{"type":"LineString","coordinates":[[80.545,16.4467758],[80.5455666,16.4467725],[80.5461457,16.4467658],[80.5467248,16.4467559],[80.5473039,16.4467428],[80.5478829,16.4467268],[80.5484619,16.446708],[80.5490409,16.446687],[80.5496199,16.446664],[80.5501989,16.4466395],[80.5507778,16.4466139],[80.5513568,16.4465878],[80.5519357,16.4465616],[80.5525146,16.446536],[80.5530936,16.4465114],[80.5536726,16.4464882],[80.5542516,16.4464669],[80.5548306,16.446448],[80.5554096,16.4464317],[80.5559887,16.4464183],[80.5565678,16.4464081],[80.5571469,16.4464011],[80.5577261,16.4463974],[80.5583053,16.446397],[80.5588845,16.4463997],[80.5594638,16.4464053],[80.560043,16.4464136],[80.5606223,16.4464243],[80.5612016,16.4464369],[80.561781,16.4464511],[80.5623603,16.4464662],[80.5629397,16.446482],[80.563519,16.4464977],[80.5640984,16.4465129],[80.5646777,16.4465272],[80.565257,16.4465399],[80.5658363,16.4465508],[80.5664156,16.4465593],[80.5669949,16.4465652],[80.567,16.4465652]]},"properties":{"name":"Cross Road 4","road_class":"village","width_m":8.0,"source":"synthetic"}},{"type":"Feature","geometry":{"type":"LineString","coordinates":[[80.5504746,16.4493857],[80.5509021,16.449381],[80.5513296,16.4493794],[80.5517573,16.4493801],[80.5521849,16.4493824],[80.5526126,16.4493855],[80.5530403,16.4493884],[80.553468,16.4493903],[80.5538956,16.4493903],[80.5543231,16.4493875],[80.5547506,16.4493814],[80.555178,16.4493714],[80.5556052,16.4493573],[80.5560324,16.449339],[80.5564594,16.4493167],[80.5568864,16.4492909],[80.5573132,16.449262],[80.5577401,16.4492308],[80.5581668,16.4491983],[80.5585936,16.4491654],[80.5590204,16.449133],[80.5594472,16.4491021],[80.5598741,16.4490736],[80.5603011,16.4490483],[80.5607281,16.4490267],[80.5611553,16.4490093],[80.5615826,16.4489962],[80.56201,16.4489874],[80.5624375,16.4489827],[80.5628651,16.4489815],[80.5632927,16.4489832],[80.5637204,16.4489871],[80.5641482,16.4489922],[80.5645759,16.4489976],[80.5650037,16.4490024],[80.5654314,16.4490057],[80.565859,16.4490068],[80.5662866,16.4490049],[80.5667141,16.4489997],[80.567,16.4489939]]},"properties":{"name":"Cross Road 5","road_class":"village","width_m":8.0,"source":"synthetic"}},{"type":"Feature","geometry":{"type":"LineString","coordinates":[[80.5461042,16.434],[80.5461043,16.4340551],[80.5461036,16.4341952],[80.5461023,16.4343353],[80.5461009,16.4344754],[80.5460999,16.4346155],[80.5460997,16.4347556],[80.5461008,16.4348956],[80.5461034,16.4350355],[80.546108,16.4351754],[80.5461146,16.4353153],[80.5461233,16.435455],[80.546134,16.4355947],[80.5461467,16.4357343],[80.546161,16.4358739],[80.5461765,16.4360134],[80.5461929,16.4361529],[80.5462097,16.4362924],[80.5462263,16.4364319],[80.5462423,16.4365714],[80.5462572,16.436711],[80.5462705,16.4368505],[80.546282,16.4369902],[80.5462914,16.4371299],[80.5462986,16.4372698],[80.5463035,16.4374096],[80.5463063,16.4375496],[80.5463072,16.4376896],[80.5463065,16.4378297],[80.5463045,16.4379699],[80.5463017,16.43811],[80.5462986,16.4382502],[80.5462956,16.4383903],[80.5462933,16.4385305],[80.546292,16.4386706],[80.5462921,16.4388106],[80.5462938,16.4389506],[80.5462974,16.4390906],[80.5463027,16.4392304],[80.5463099,16.4393703]]},"properties":{"name":"1st Street","road_class":"village","width_m":7.0,"source":"synthetic"}},{"type":"Feature","geometry":{"type":"LineString","coordinates":[[80.5489667,16.434],[80.5489664,16.4340614],[80.5489658,16.4342015],[80.5489653,16.4343415],[80.5489653,16.4344816],[80.5489657,16.4346216],[80.5489667,16.4347617],[80.5489684,16.4349017],[80.5489708,16.4350416],[80.5489742,16.4351816],[80.5489784,16.4353215],[80.5489835,16.4354614],[80.5489896,16.4356012],[80.5489965,16.4357411],[80.5490043,16.4358808],[80.5490129,16.4360206],[80.5490222,16.4361603],[80.5490321,16.4363001],[80.5490425,16.4364398],[80.5490533,16.4365795],[80.5490643,16.4367191],[80.5490753,16.4368588],[80.5490863,16.4369985],[80.5490971,16.4371382],[80.5491076,16.4372779],[80.5491175,16.4374176],[80.5491269,16.4375573],[80.5491356,16.4376971],[80.5491435,16.4378369],[80.5491506,16.4379767],[80.5491567,16.4381165],[80.549162,16.4382564],[80.5491663,16.4383963],[80.5491697,16.4385363],[80.5491723,16.4386762],[80.549174,16.4388162],[80.5491751,16.4389563],[80.5491756,16.4390963],[80.5491756,16.4392364],[80.5491752,16.4393764]]},"properties":{"name":"2nd Street","road_class":"village","width_m":7.0,"source":"synthetic"}},{"type":"Feature","geometry":{"type":"LineString","coordinates":[[80.545,16.435228],[80.5451494,16.4352374],[80.5453192,16.4352477],[80.5454891,16.4352574],[80.5456589,16.4352659],[80.5458288,16.435273],[80.5459988,16.4352784],[80.5461688,16.4352819],[80.5463389,16.4352835],[80.546509,16.4352832],[80.5466792,16.4352812],[80.5468494,16.4352777],[80.5470197,16.435273],[80.54719,16.4352677],[80.5473603,16.4352621],[80.5475305,16.4352567],[80.5477008,16.435252],[80.547871,16.4352484],[80.5480412,16.4352464],[80.5482114,16.4352463],[80.5483814,16.4352482],[80.5485514,16.4352523],[80.5487213,16.4352586],[80.5488912,16.4352671],[80.549061,16.4352774],[80.5492308,16.4352893],[80.5494005,16.4353024],[80.5495702,16.4353163],[80.5497399,16.4353305],[80.5499096,16.4353445],[80.5500793,16.435358],[80.550249,16.4353704],[80.5504188,16.4353814],[80.5505886,16.4353908],[80.5507585,16.4353984],[80.5509285,16.4354042],[80.5510985,16.4354081],[80.5512685,16.4354105],[80.5514386,16.4354115],[80.5516087,16.4354114]]},"properties":{"name":"Main Bazaar Lane 1","road_class":"village","width_m":7.0,"source":"synthetic"}},{"type":"Feature","geometry":{"type":"LineString","coordinates":[[80.545,16.4375668],[80.5451444,16.4375687],[80.5453145,16.4375695],[80.5454847,16.437569],[80.5456548,16.4375674],[80.545825,16.4375653],[80.5459952,16.4375631],[80.5461654,16.4375611],[80.5463356,16.43756],[80.5465057,16.43756],[80.5466758,16.4375616],[80.5468458,16.4375651],[80.5470157,16.4375705],[80.5471856,16.4375781],[80.5473555,16.4375877],[80.5475252,16.4375993],[80.5476949,16.4376126],[80.5478646,16.4376273],[80.5480343,16.4376429],[80.5482039,16.437659],[80.5483735,16.4376752],[80.5485431,16.4376909],[80.5487128,16.4377057],[80.5488825,16.4377192],[80.5490523,16.437731],[80.5492221,16.4377408],[80.549392,16.4377486],[80.5495619,16.4377543],[80.549732,16.437758],[80.549902,16.4377598],[80.5500721,16.43776],[80.5502423,16.437759],[80.5504125,16.4377572],[80.5505827,16.437755],[80.5507529,16.4377529],[80.550923,16.4377513],[80.5510932,16.4377507],[80.5512633,16.4377513],[80.5514333,16.4377535],[80.5516033,16.4377574]]},"properties":{"name":"Main Bazaar Lane 2","road_class":"village","width_m":7.0,"source":"synthetic"}},{"type":"Feature","geometry":{"type":"LineString","coordinates":[[80.545,16.4399198],[80.5451385,16.4399282],[80.5453083,16.4399391],[80.5454781,16.43995],[80.5456479,16.4399604],[80.5458178,16.43997],[80.5459876,16.4399784],[80.5461575,16.4399852],[80.5463275,16.4399902],[80.5464976,16.4399932],[80.5466677,16.4399942],[80.5468378,16.4399933],[80.547008,16.4399906],[80.5471783,16.4399865],[80.5473486,16.4399813],[80.5475189,16.4399754],[80.5476892,16.4399693],[80.5478595,16.4399635],[80.5480298,16.4399585],[80.5482,16.4399546],[80.5483702,16.4399524],[80.5485403,16.439952],[80.5487104,16.4399536],[80.5488804,16.4399575],[80.5490504,16.4399636],[80.5492202,16.4399717],[80.5493901,16.4399816],[80.5495598,16.439993],[80.5497296,16.4400055],[80.5498993,16.4400187],[80.550069,16.4400322],[80.5502387,16.4400454],[80.5504085,16.4400578],[80.5505783,16.4400692],[80.5507481,16.4400792],[80.5509179,16.4400876],[80.5510879,16.4400941],[80.5512578,16.4400989],[80.5514279,16.440102],[80.551598,16.4401035]]},"properties":{"name":"Main Bazaar Lane 3","road_class":"village","width_m":7.0,"source":"synthetic"}},{"type":"Feature","geometry":{"type":"LineString","coordinates":[[80.5468444,16.4477687],[80.5454237,16.4476868]]},"properties":{"name":"Lane 1","road_class":"lane","width_m":4.5,"source":"synthetic"}},{"type":"Feature","geometry":{"type":"LineString","coordinates":[[80.5631227,16.4437326],[80.5631445,16.4447316]]},"properties":{"name":"Lane 2","road_class":"lane","width_m":4.5,"source":"synthetic"}},{"type":"Feature","geometry":{"type":"LineString","coordinates":[[80.5643483,16.4439318],[80.565763,16.4438485]]},"properties":{"name":"Lane 3","road_class":"lane","width_m":4.5,"source":"synthetic"}},{"type":"Feature","geometry":{"type":"LineString","coordinates":[[80.5645209,16.443742],[80.56457,16.4426082]]},"properties":{"name":"Lane 4","road_class":"lane","width_m":4.5,"source":"synthetic"}},{"type":"Feature","geometry":{"type":"LineString","coordinates":[[80.558765,16.443367],[80.5575037,16.4434083]]},"properties":{"name":"Lane 5","road_class":"lane","width_m":4.5,"source":"synthetic"}},{"type":"Feature","geometry":{"type":"LineString","coordinates":[[80.5521108,16.4365071],[80.5521024,16.4353522]]},"properties":{"name":"Lane 6","road_class":"lane","width_m":4.5,"source":"synthetic"}},{"type":"Feature","geometry":{"type":"LineString","coordinates":[[80.5468657,16.4472388],[80.5459496,16.4472143]]},"properties":{"name":"Lane 7","road_class":"lane","width_m":4.5,"source":"synthetic"}},{"type":"Feature","geometry":{"type":"LineString","coordinates":[[79.9505773,12.945],[79.9505729,12.9453714],[79.9505827,12.9458508],[79.9506085,12.9463298],[79.9506501,12.9468086],[79.9507061,12.9472872],[79.9507743,12.9477655],[79.9508518,12.9482436],[79.9509349,12.9487216],[79.9510198,12.9491996],[79.9511022,12.9496777],[79.9511779,12.9501558],[79.9512432,12.9506342],[79.9512947,12.9511128],[79.9513295,12.9515917],[79.9513459,12.9520709],[79.9513429,12.9525505],[79.9513205,12.9530305],[79.9512797,12.9535108],[79.9512225,12.9539913],[79.9511516,12.9544722],[79.9510706,12.9549532],[79.9509835,12.9554343],[79.9508944,12.9559154],[79.9508078,12.9563965],[79.9507277,12.9568775],[79.9506579,12.9573583],[79.9506015,12.9578389],[79.950561,12.9583192],[79.9505379,12.9587991],[79.9505326,12.9592788],[79.9505448,12.9597581],[79.9505729,12.9602371],[79.9506148,12.9607159],[79.9506675,12.9611945],[79.9507273,12.9616729],[79.9507904,12.9621513],[79.9508528,12.9626297],[79.9508973,12.963]]},"properties":{"name":"Mangalagiri \u2013 Tadepalli Road","road_class":"state","width_m":18.0,"source":"synthetic"}},{"type":"Feature","geometry":{"type":"LineString","coordinates":[[79.94,12.9525322],[79.940575,12.952554],[79.9411549,12.9525715],[79.9417347,12.9525839],[79.9423144,12.9525907],[79.942894,12.9525916],[79.9434736,12.9525865],[79.9440531,12.9525752],[79.9446326,12.952558],[79.9452119,12.9525349],[79.9457912,12.9525066],[79.9463705,12.9524734],[79.9469497,12.9524361],[79.9475288,12.9523954],[79.948108,12.9523521],[79.9486871,12.9523071],[79.9492661,12.9522614],[79.9498452,12.9522159],[79.9504244,12.9521717],[79.9510035,12.9521295],[79.9515827,12.9520904],[79.9521619,12.952055],[79.9527411,12.9520241],[79.9533205,12.9519983],[79.9538999,12.9519781],[79.9544794,12.9519638],[79.9550589,12.9519555],[79.9556385,12.9519533],[79.9562182,12.9519572],[79.956798,12.9519668],[79.9573778,12.9519817],[79.9579577,12.9520015],[79.9585376,12.9520254],[79.9591176,12.9520527],[79.9596976,12.9520825],[79.9602776,12.9521141],[79.9608576,12.9521463],[79.9614377,12.9521783],[79.962,12.9522082]]},"properties":{"name":"Nidamarru Road","road_class":"district","width_m":12.0,"source":"synthetic"}},{"type":"Feature","geometry":{"type":"LineString","coordinates":[[79.9580083,12.963],[79.95813,12.9628297],[79.9582699,12.9626355],[79.9584103,12.9624416],[79.9585508,12.9622477],[79.958691,12.9620538],[79.9588307,12.9618594],[79.9589693,12.9616645],[79.9591066,12.9614687],[79.9592422,12.961272],[79.959376,12.9610742],[79.9595077,12.9608751],[79.9596371,12.9606747],[79.9597641,12.9604728],[79.9598887,12.9602696],[79.9600108,12.9600649],[79.9601306,12.9598588],[79.9602483,12.9596514],[79.9603638,12.9594428],[79.9604776,12.9592331],[79.9605899,12.9590225],[79.9607009,12.9588113],[79.9608111,12.9585995],[79.9609208,12.9583874],[79.9610304,12.9581752],[79.9611402,12.9579632],[79.9612507,12.9577516],[79.9613622,12.9575405],[79.961475,12.9573303],[79.9615894,12.957121],[79.9617058,12.9569129],[79.9618242,12.9567059],[79.9619449,12.9565004],[79.962,12.956409]]},"properties":{"name":"NH-16 service corridor","road_class":"national","width_m":30.0,"source":"synthetic"}},{"type":"Feature","geometry":{"type":"LineString","coordinates":[[79.9422934,12.945],[79.9422847,12.9453369],[79.9422741,12.9458161],[79.9422652,12.9462954],[79.9422582,12.9467747],[79.9422531,12.947254],[79.94225,12.9477334],[79.9422486,12.9482127],[79.9422491,12.9486921],[79.9422512,12.9491715],[79.9422547,12.9496509],[79.9422595,12.9501303],[79.9422653,12.9506097],[79.9422718,12.9510892],[79.9422788,12.9515686],[79.9422859,12.952048],[79.9422929,12.9525275],[79.9422994,12.9530069],[79.9423052,12.9534863],[79.94231,12.9539658],[79.9423136,12.9544452],[79.9423157,12.9549246],[79.9423161,12.9554039],[79.9423148,12.9558833],[79.9423116,12.9563626],[79.9423065,12.9568419],[79.9422995,12.9573212],[79.9422907,12.9578005],[79.94228,12.9582798],[79.9422678,12.958759],[79.942254,12.9592382],[79.9422391,12.9597175],[79.9422231,12.9601967],[79.9422064,12.9606759],[79.9421892,12.961155],[79.9421719,12.9616342],[79.9421547,12.9621134],[79.942138,12.9625926],[79.9421244,12.963]]},"properties":{"name":"Village Road 1","road_class":"village","width_m":8.0,"source":"synthetic"}},{"type":"Feature","geometry":{"type":"LineString","coordinates":[[79.9454744,12.9521691],[79.9454527,12.9523131],[79.9454281,12.9524569],[79.9454011,12.9526003],[79.9453725,12.9527436],[79.9453432,12.9528869],[79.9453141,12.9530301],[79.9452862,12.9531735],[79.9452603,12.9533171],[79.9452373,12.9534609],[79.9452177,12.9536052],[79.9452021,12.9537499],[79.9451907,12.953895],[79.9451835,12.9540405],[79.9451804,12.9541865],[79.9451809,12.9543329],[79.9451844,12.9544795],[79.9451901,12.9546264],[79.9451971,12.9547735],[79.9452045,12.9549206],[79.9452112,12.9550676],[79.9452163,12.9552144],[79.9452189,12.955361],[79.9452182,12.9555072],[79.9452136,12.9556531],[79.9452047,12.9557984],[79.9451914,12.9559433],[79.9451738,12.9560878],[79.945152,12.9562318],[79.9451267,12.9563755],[79.9450984,12.9565188],[79.945068,12.9566619],[79.9450365,12.9568049],[79.9450047,12.9569479],[79.9449736,12.9570909],[79.9449442,12.9572341],[79.944917,12.9573776],[79.9448929,12.9575213],[79.9448722,12.9576655],[79.9448552,12.95781],[79.9448418,12.9579549]]},"properties":{"name":"Village Road 2","road_class":"village","width_m":8.0,"source":"synthetic"}},{"type":"Feature","geometry":{"type":"LineString","coordinates":[[79.9477952,12.9521785],[79.9478015,12.9524635],[79.9478127,12.9527484],[79.9478286,12.9530331],[79.947849,12.9533177],[79.9478733,12.9536021],[79.9479007,12.9538865],[79.9479302,12.9541708],[79.9479605,12.9544551],[79.9479905,12.9547393],[79.9480189,12.9550237],[79.9480445,12.9553081],[79.9480662,12.9555926],[79.9480831,12.9558773],[79.9480947,12.9561622],[79.9481005,12.9564472],[79.9481005,12.9567324],[79.9480949,12.9570178],[79.9480842,12.9573034],[79.9480693,12.9575891],[79.948051,12.9578749],[79.9480307,12.9581608],[79.9480096,12.9584467],[79.9479889,12.9587325],[79.9479701,12.9590184],[79.9479542,12.9593041],[79.9479423,12.9595897],[79.9479352,12.9598751],[79.9479335,12.9601604],[79.9479373,12.9604455],[79.9479466,12.9607304],[79.9479611,12.9610152],[79.9479802,12.9612998],[79.9480029,12.9615843],[79.9480284,12.9618688],[79.9480552,12.9621531],[79.9480824,12.9624375],[79.9481085,12.9627219],[79.948132,12.963]]},"properties":{"name":"Village Road 3","road_class":"village","width_m":8.0,"source":"synthetic"}},{"type":"Feature","geometry":{"type":"LineString","coordinates":[[79.9540617,12.945],[79.9540839,12.945384],[79.9541193,12.9458628],[79.9541612,12.9463414],[79.954208,12.9468198],[79.9542577,12.9472981],[79.9543082,12.9477764],[79.9543574,12.9482548],[79.954403,12.9487332],[79.9544429,12.9492118],[79.9544754,12.9496907],[79.9544991,12.9501699],[79.954513,12.9506493],[79.9545168,12.9511291],[79.9545104,12.9516092],[79.9544945,12.9520896],[79.9544703,12.9525703],[79.9544393,12.9530512],[79.9544035,12.9535323],[79.9543649,12.9540134],[79.9543261,12.9544945],[79.9542893,12.9549756],[79.9542567,12.9554566],[79.9542304,12.9559373],[79.9542121,12.9564178],[79.9542029,12.956898],[79.9542037,12.9573779],[79.9542147,12.9578574],[79.9542356,12.9583367],[79.9542656,12.9588156],[79.9543033,12.9592943],[79.9543471,12.9597729],[79.9543951,12.9602512],[79.954445,12.9607296],[79.9544947,12.9612079],[79.9545419,12.9616863],[79.9545846,12.9621648],[79.9546213,12.9626436],[79.9546431,12.963]]},"properties":{"name":"Village Road 4","road_class":"village","width_m":8.0,"source":"synthetic"}},{"type":"Feature","geometry":{"type":"LineString","coordinates":[[79.9558648,12.945],[79.9558263,12.9453895],[79.9557803,12.9458676],[79.9557362,12.9463459],[79.9556945,12.9468243],[79.9556555,12.9473028],[79.9556198,12.9477815],[79.9555876,12.9482603],[79.9555591,12.9487393],[79.9555345,12.9492185],[79.9555138,12.9496979],[79.9554969,12.9501774],[79.9554837,12.9506571],[79.9554738,12.951137],[79.9554671,12.951617],[79.9554631,12.9520972],[79.9554612,12.9525774],[79.955461,12.9530578],[79.955462,12.9535381],[79.9554634,12.9540186],[79.9554647,12.954499],[79.9554654,12.9549793],[79.9554647,12.9554596],[79.9554621,12.9559398],[79.9554572,12.95642],[79.9554495,12.9568999],[79.9554386,12.9573798],[79.9554241,12.9578594],[79.9554059,12.9583389],[79.9553839,12.9588182],[79.9553579,12.9592973],[79.9553282,12.9597763],[79.9552948,12.960255],[79.9552579,12.9607337],[79.955218,12.9612121],[79.9551754,12.9616905],[79.9551306,12.9621687],[79.9550841,12.9626469],[79.9550489,12.963]]},"properties":{"name":"Village Road 5","road_class":"village","width_m":8.0,"source":"synthetic"}},{"type":"Feature","geometry":{"type":"LineString","coordinates":[[79.9594375,12.9522252],[79.9594039,12.9525092],[79.9593695,12.952793],[79.9593348,12.9530769],[79.9593,12.9533607],[79.9592655,12.9536446],[79.9592316,12.9539285],[79.9591985,12.9542124],[79.9591667,12.9544965],[79.9591363,12.9547807],[79.9591075,12.9550649],[79.9590806,12.9553493],[79.9590556,12.9556339],[79.9590327,12.9559186],[79.9590119,12.9562034],[79.9589931,12.9564885],[79.9589764,12.9567736],[79.9589615,12.9570589],[79.9589484,12.9573443],[79.9589368,12.9576298],[79.9589265,12.9579154],[79.9589172,12.9582011],[79.9589085,12.9584869],[79.9589003,12.9587726],[79.9588921,12.9590584],[79.9588837,12.9593441],[79.9588747,12.9596299],[79.9588647,12.9599155],[79.9588536,12.9602011],[79.9588411,12.9604865],[79.9588269,12.9607718],[79.9588109,12.961057],[79.9587929,12.9613421],[79.9587728,12.961627],[79.9587507,12.9619118],[79.9587265,12.9621964],[79.9587002,12.9624808],[79.9586721,12.9627652],[79.9586475,12.963]]},"properties":{"name":"Village Road 6","road_class":"village","width_m":8.0,"source":"synthetic"}},{"type":"Feature","geometry":{"type":"LineString","coordinates":[[79.94,12.9472779],[79.9400158,12.9472794],[79.940305,12.9473052],[79.9405943,12.9473291],[79.9408836,12.9473507],[79.941173,12.9473697],[79.9414625,12.9473858],[79.9417521,12.9473988],[79.9420418,12.9474087],[79.9423315,12.9474153],[79.9426214,12.9474187],[79.9429114,12.9474191],[79.9432014,12.9474166],[79.9434915,12.9474115],[79.9437817,12.9474041],[79.944072,12.9473949],[79.9443623,12.9473841],[79.9446526,12.9473724],[79.9449429,12.9473602],[79.9452333,12.947348],[79.9455236,12.9473364],[79.9458139,12.9473257],[79.9461041,12.9473165],[79.9463943,12.9473092],[79.9466844,12.9473042],[79.9469745,12.9473018],[79.9472644,12.9473023],[79.9475543,12.9473058],[79.9478441,12.9473126],[79.9481338,12.9473226],[79.9484233,12.9473357],[79.9487128,12.9473519],[79.9490022,12.947371],[79.9492916,12.9473927],[79.9495808,12.9474167],[79.94987,12.9474426],[79.9501592,12.9474699],[79.9504483,12.9474982],[79.9507374,12.947527],[79.9510266,12.9475557]]},"properties":{"name":"Cross Road 1","road_class":"village","width_m":8.0,"source":"synthetic"}},{"type":"Feature","geometry":{"type":"LineString","coordinates":[[79.94,12.9501571],[79.9400049,12.9501572],[79.9405846,12.9501602],[79.9411642,12.9501606],[79.9417439,12.9501579],[79.9423235,12.9501523],[79.942903,12.9501434],[79.9434825,12.9501315],[79.944062,12.9501167],[79.9446414,12.950099],[79.9452208,12.9500787],[79.9458001,12.9500562],[79.9463795,12.9500319],[79.9469588,12.950006],[79.9475381,12.9499792],[79.9481174,12.9499518],[79.9486967,12.9499243],[79.9492759,12.9498972],[79.9498553,12.9498711],[79.9504346,12.9498463],[79.9510139,12.9498233],[79.9515933,12.9498025],[79.9521727,12.9497842],[79.9527522,12.9497686],[79.9533317,12.9497559],[79.9539112,12.9497463],[79.9544908,12.9497398],[79.9550704,12.9497365],[79.9556501,12.9497361],[79.9562298,12.9497385],[79.9568095,12.9497434],[79.9573893,12.9497506],[79.9579691,12.9497597],[79.9585489,12.9497702],[79.9591287,12.9497818],[79.9597085,12.9497939],[79.9602884,12.9498061],[79.9608682,12.9498178],[79.961448,12.9498286],[79.962,12.9498376]]},"properties":{"name":"Cross Road 2","road_class":"village","width_m":8.0,"source":"synthetic"}},{"type":"Feature","geometry":{"type":"LineString","coordinates":[[79.94,12.9555107],[79.9402469,12.9555087],[79.9406691,12.9555023],[79.9410914,12.9554931],[79.9415136,12.9554813],[79.9419358,12.9554672],[79.9423581,12.9554513],[79.9427803,12.9554338],[79.9432026,12.9554153],[79.9436248,12.9553962],[79.9440471,12.955377],[79.9444693,12.9553582],[79.9448916,12.9553402],[79.9453138,12.9553236],[79.9457361,12.9553087],[79.9461583,12.9552959],[79.9465805,12.9552856],[79.9470028,12.9552781],[79.947425,12.9552734],[79.9478472,12.9552718],[79.9482694,12.9552733],[79.9486917,12.9552779],[79.9491139,12.9552855],[79.9495361,12.9552959],[79.9499583,12.9553088],[79.9503805,12.9553241],[79.9508027,12.9553412],[79.9512249,12.9553598],[79.9516471,12.9553795],[79.9520693,12.9553998],[79.9524914,12.9554202],[79.9529136,12.9554402],[79.9533358,12.9554593],[79.953758,12.9554771],[79.9541802,12.9554931],[79.9546024,12.9555071],[79.9550246,12.9555185],[79.9554469,12.9555273],[79.9558691,12.9555331],[79.9562913,12.9555358]]},"properties":{"name":"Cross Road 3","road_class":"village","width_m":8.0,"source":"synthetic"}},{"type":"Feature","geometry":{"type":"LineString","coordinates":[[79.94,12.9579215],[79.9405518,12.9579339],[79.9411315,12.957946],[79.9417112,12.9579568],[79.9422909,12.9579661],[79.9428705,12.9579733],[79.9434502,12.9579782],[79.9440298,12.9579806],[79.9446094,12.9579803],[79.945189,12.9579772],[79.9457685,12.9579713],[79.9463481,12.9579625],[79.9469276,12.957951],[79.9475071,12.9579369],[79.9480865,12.9579205],[79.948666,12.957902],[79.9492454,12.9578818],[79.9498249,12.9578603],[79.9504043,12.9578379],[79.9509837,12.957815],[79.9515631,12.957792],[79.9521425,12.9577694],[79.9527219,12.9577477],[79.9533014,12.9577272],[79.9538808,12.9577083],[79.9544603,12.9576915],[79.9550398,12.9576769],[79.9556193,12.9576649],[79.9561988,12.9576555],[79.9567783,12.957649],[79.9573579,12.9576453],[79.9579375,12.9576444],[79.9585171,12.9576463],[79.9590968,12.9576507],[79.9596765,12.9576575],[79.9602562,12.9576663],[79.9608359,12.9576768],[79.9614156,12.9576886],[79.9619953,12.9577014],[79.962,12.9577015]]},"properties":{"name":"Cross Road 4","road_class":"village","width_m":8.0,"source":"synthetic"}},{"type":"Feature","geometry":{"type":"LineString","coordinates":[[79.94,12.9603146],[79.9405423,12.9603285],[79.9411224,12.9603415],[79.9417023,12.9603505],[79.9422822,12.960354],[79.9428619,12.9603505],[79.9434415,12.9603389],[79.9440209,12.9603189],[79.9446001,12.9602903],[79.9451792,12.9602535],[79.9457582,12.9602095],[79.9463371,12.9601595],[79.9469158,12.9601053],[79.9474946,12.9600489],[79.9480733,12.9599923],[79.9486521,12.9599376],[79.9492309,12.959887],[79.9498099,12.9598424],[79.950389,12.9598054],[79.9509682,12.9597772],[79.9515477,12.9597586],[79.9521273,12.9597499],[79.9527071,12.959751],[79.9532871,12.9597612],[79.9538672,12.9597793],[79.9544475,12.9598039],[79.9550278,12.959833],[79.9556082,12.9598647],[79.9561886,12.9598969],[79.956769,12.9599274],[79.9573493,12.9599542],[79.9579295,12.9599757],[79.9585095,12.9599905],[79.9590895,12.9599975],[79.9596692,12.9599963],[79.9602488,12.9599868],[79.9608283,12.9599695],[79.9614076,12.9599452],[79.9619869,12.9599155],[79.962,12.9599147]]},"properties":{"name":"Cross Road 5","road_class":"village","width_m":8.0,"source":"synthetic"}},{"type":"Feature","geometry":{"type":"LineString","coordinates":[[79.941107,12.945],[79.9411071,12.9450158],[79.9411064,12.9451562],[79.941105,12.9452966],[79.9411033,12.9454371],[79.9411018,12.9455775],[79.9411009,12.9457179],[79.9411011,12.9458582],[79.9411028,12.9459986],[79.9411062,12.9461388],[79.9411117,12.946279],[79.9411191,12.9464191],[79.9411287,12.9465592],[79.9411403,12.9466992],[79.9411535,12.9468391],[79.9411682,12.9469789],[79.9411839,12.9471188],[79.9412002,12.9472586],[79.9412166,12.9473984],[79.9412325,12.9475383],[79.9412475,12.9476781],[79.9412612,12.947818],[79.9412733,12.947958],[79.9412833,12.948098],[79.9412913,12.9482381],[79.941297,12.9483783],[79.9413006,12.9485186],[79.9413022,12.9486589],[79.941302,12.9487993],[79.9413005,12.9489397],[79.941298,12.9490801],[79.9412951,12.9492206],[79.941292,12.9493611],[79.9412894,12.9495015],[79.9412877,12.949642],[79.9412872,12.9497823],[79.9412882,12.9499227],[79.941291,12.950063],[79.9412956,12.9502032],[79.9413019,12.9503433]]},"properties":{"name":"1st Street","road_class":"village","width_m":7.0,"source":"synthetic"}},{"type":"Feature","geometry":{"type":"LineString","coordinates":[[79.9439745,12.945],[79.9439744,12.9450275],[79.9439732,12.9451679],[79.9439719,12.9453084],[79.943971,12.9454488],[79.9439707,12.9455891],[79.9439717,12.9457295],[79.9439742,12.9458698],[79.9439785,12.94601],[79.9439848,12.9461502],[79.9439931,12.9462902],[79.9440034,12.9464303],[79.9440156,12.9465702],[79.9440293,12.9467101],[79.9440443,12.94685],[79.9440601,12.9469898],[79.9440763,12.9471297],[79.9440923,12.9472695],[79.9441077,12.9474093],[79.9441219,12.9475492],[79.9441347,12.9476892],[79.9441457,12.9478292],[79.9441545,12.9479692],[79.9441612,12.9481094],[79.9441657,12.9482496],[79.944168,12.9483899],[79.9441684,12.9485303],[79.9441671,12.9486707],[79.9441646,12.9488111],[79.9441613,12.9489516],[79.9441577,12.9490921],[79.9441541,12.9492326],[79.9441512,12.9493731],[79.9441492,12.9495135],[79.9441487,12.9496539],[79.9441497,12.9497942],[79.9441525,12.9499345],[79.9441571,12.9500747],[79.9441636,12.9502149],[79.9441716,12.950355]]},"properties":{"name":"2nd Street","road_class":"village","width_m":7.0,"source":"synthetic"}},{"type":"Feature","geometry":{"type":"LineString","coordinates":[[79.94,12.9461888],[79.9401506,12.9461984],[79.9403206,12.9462093],[79.9404905,12.9462201],[79.9406605,12.9462306],[79.9408305,12.9462408],[79.9410005,12.9462505],[79.9411705,12.9462595],[79.9413406,12.9462679],[79.9415106,12.9462755],[79.9416807,12.9462822],[79.9418509,12.9462881],[79.942021,12.9462931],[79.9421912,12.9462972],[79.9423614,12.9463004],[79.9425317,12.9463029],[79.9427019,12.9463045],[79.9428722,12.9463056],[79.9430425,12.9463061],[79.9432128,12.9463061],[79.9433831,12.9463059],[79.9435534,12.9463055],[79.9437238,12.946305],[79.9438941,12.9463047],[79.9440644,12.9463046],[79.9442347,12.9463048],[79.944405,12.9463056],[79.9445753,12.9463069],[79.9447455,12.946309],[79.9449157,12.9463118],[79.9450859,12.9463155],[79.9452561,12.9463201],[79.9454262,12.9463255],[79.9455964,12.9463318],[79.9457664,12.946339],[79.9459365,12.946347],[79.9461065,12.9463557],[79.9462765,12.9463651],[79.9464465,12.946375],[79.9466165,12.9463854]]},"properties":{"name":"Main Bazaar Lane 1","road_class":"village","width_m":7.0,"source":"synthetic"}},{"type":"Feature","geometry":{"type":"LineString","coordinates":[[79.94,12.9485393],[79.9401407,12.9485474],[79.9403107,12.9485576],[79.9404807,12.9485682],[79.9406507,12.948579],[79.9408206,12.9485899],[79.9409906,12.9486007],[79.9411606,12.9486113],[79.9413306,12.9486216],[79.9415006,12.9486315],[79.9416706,12.9486407],[79.9418406,12.9486493],[79.9420107,12.9486571],[79.9421808,12.9486641],[79.9423509,12.9486703],[79.9425211,12.9486755],[79.9426912,12.9486799],[79.9428614,12.9486834],[79.9430317,12.9486861],[79.9432019,12.948688],[79.9433722,12.9486892],[79.9435425,12.9486898],[79.9437128,12.94869],[79.9438831,12.9486898],[79.9440534,12.9486895],[79.9442238,12.948689],[79.9443941,12.9486886],[79.9445644,12.9486884],[79.9447347,12.9486885],[79.944905,12.9486891],[79.9450753,12.9486903],[79.9452456,12.9486922],[79.9454158,12.9486948],[79.945586,12.9486982],[79.9457562,12.9487025],[79.9459263,12.9487076],[79.9460964,12.9487137],[79.9462665,12.9487206],[79.9464366,12.9487284],[79.9466067,12.9487369]]},"properties":{"name":"Main Bazaar Lane 2","road_class":"village","width_m":7.0,"source":"synthetic"}},{"type":"Feature","geometry":{"type":"LineString","coordinates":[[79.94,12.9508899],[79.9401309,12.9508951],[79.9403011,12.9509003],[79.9404713,12.9509036],[79.9406416,12.9509052],[79.9408119,12.9509051],[79.9409822,12.9509037],[79.9411526,12.9509012],[79.941323,12.9508982],[79.9414935,12.9508949],[79.9416639,12.9508919],[79.9418343,12.9508896],[79.9420046,12.9508885],[79.9421749,12.950889],[79.9423452,12.9508913],[79.9425153,12.9508957],[79.9426854,12.9509022],[79.9428555,12.950911],[79.9430254,12.9509218],[79.9431954,12.9509344],[79.9433652,12.9509486],[79.943535,12.9509639],[79.9437049,12.9509798],[79.9438747,12.9509961],[79.9440445,12.951012],[79.9442143,12.9510272],[79.9443842,12.9510412],[79.9445541,12.9510538],[79.9447241,12.9510645],[79.9448941,12.9510733],[79.9450642,12.9510802],[79.9452343,12.951085],[79.9454046,12.9510881],[79.9455748,12.9510896],[79.9457451,12.9510899],[79.9459155,12.9510895],[79.9460858,12.9510886],[79.9462562,12.9510878],[79.9464265,12.9510876],[79.9465968,12.9510883]]},"properties":{"name":"Main Bazaar Lane 3","road_class":"village","width_m":7.0,"source":"synthetic"}},{"type":"Feature","geometry":{"type":"LineString","coordinates":[[79.9513611,12.9498109],[79.951322,12.9487652]]},"properties":{"name":"Lane 1","road_class":"lane","width_m":4.5,"source":"synthetic"}},{"type":"Feature","geometry":{"type":"LineString","coordinates":[[79.9420851,12.9486602],[79.9420354,12.9498198]]},"properties":{"name":"Lane 2","road_class":"lane","width_m":4.5,"source":"synthetic"}},{"type":"Feature","geometry":{"type":"LineString","coordinates":[[79.9471663,12.9473021],[79.9471691,12.9463588]]},"properties":{"name":"Lane 3","road_class":"lane","width_m":4.5,"source":"synthetic"}},{"type":"Feature","geometry":{"type":"LineString","coordinates":[[79.9448393,12.9473646],[79.9448814,12.9483277]]},"properties":{"name":"Lane 4","road_class":"lane","width_m":4.5,"source":"synthetic"}},{"type":"Feature","geometry":{"type":"LineString","coordinates":[[79.9423159,12.9552326],[79.9437607,12.9552315]]},"properties":{"name":"Lane 5","road_class":"lane","width_m":4.5,"source":"synthetic"}},{"type":"Feature","geometry":{"type":"LineString","coordinates":[[79.9422596,12.9501403],[79.9431988,12.9501294]]},"properties":{"name":"Lane 6","road_class":"lane","width_m":4.5,"source":"synthetic"}},{"type":"Feature","geometry":{"type":"LineString","coordinates":[[79.9542287,12.9581773],[79.9532341,12.9582211]]},"properties":{"name":"Lane 7","road_class":"lane","width_m":4.5,"source":"synthetic"}},{"type":"Feature","geometry":{"type":"LineString","coordinates":[[78.3987036,17.24],[78.3987124,17.2402805],[78.3987353,17.2407646],[78.3987654,17.2412487],[78.3988023,17.2417327],[78.398845,17.2422166],[78.3988927,17.2427005],[78.3989442,17.2431844],[78.3989984,17.2436683],[78.399054,17.2441521],[78.3991099,17.244636],[78.3991647,17.2451198],[78.3992172,17.2456037],[78.3992663,17.2460876],[78.3993107,17.2465715],[78.3993495,17.2470555],[78.399382,17.2475396],[78.3994073,17.2480237],[78.3994249,17.2485078],[78.3994346,17.248992],[78.3994362,17.2494763],[78.3994298,17.2499607],[78.3994156,17.2504451],[78.3993941,17.2509296],[78.3993659,17.2514141],[78.3993319,17.2518987],[78.3992929,17.2523834],[78.3992501,17.252868],[78.3992045,17.2533527],[78.3991575,17.2538374],[78.3991103,17.2543221],[78.3990642,17.2548068],[78.3990203,17.2552914],[78.39898,17.2557761],[78.3989442,17.2562607],[78.3989141,17.2567452],[78.3988903,17.2572297],[78.3988737,17.2577142],[78.3988684,17.258]]},"properties":{"name":"Mangalagiri \u2013 Tadepalli Road","road_class":"state","width_m":18.0,"source":"synthetic"}},{"type":"Feature","geometry":{"type":"LineString","coordinates":[[78.388,17.2474077],[78.3885013,17.2474198],[78.3890858,17.2474282],[78.3896703,17.2474305],[78.3902548,17.2474267],[78.3908393,17.2474168],[78.3914238,17.2474011],[78.3920083,17.2473799],[78.3925927,17.2473536],[78.3931772,17.247323],[78.3937616,17.2472886],[78.394346,17.2472514],[78.3949304,17.2472121],[78.3955148,17.2471718],[78.3960992,17.2471313],[78.3966836,17.2470916],[78.3972681,17.2470538],[78.3978525,17.2470186],[78.3984369,17.2469868],[78.3990214,17.2469593],[78.3996058,17.2469367],[78.4001903,17.2469195],[78.4007748,17.246908],[78.4013593,17.2469026],[78.4019438,17.2469032],[78.4025284,17.24691],[78.4031129,17.2469225],[78.4036975,17.2469406],[78.4042821,17.2469637],[78.4048667,17.2469912],[78.4054513,17.2470224],[78.406036,17.2470565],[78.4066206,17.2470926],[78.4072053,17.2471298],[78.4077899,17.2471671],[78.4083745,17.2472036],[78.4089592,17.2472383],[78.4095438,17.2472703],[78.41,17.2472926]]},"properties":{"name":"Nidamarru Road","road_class":"district","width_m":12.0,"source":"synthetic"}},{"type":"Feature","geometry":{"type":"LineString","coordinates":[[78.4061047,17.258],[78.4061127,17.2579892],[78.4062563,17.2577943],[78.4063991,17.2575989],[78.4065409,17.2574029],[78.4066813,17.2572061],[78.4068199,17.2570082],[78.4069565,17.2568092],[78.407091,17.256609],[78.4072231,17.2564073],[78.4073527,17.2562043],[78.4074799,17.2559998],[78.4076046,17.2557939],[78.407727,17.2555866],[78.4078471,17.255378],[78.4079653,17.2551683],[78.4080816,17.2549575],[78.4081965,17.2547459],[78.4083102,17.2545336],[78.4084231,17.2543208],[78.4085356,17.2541078],[78.4086481,17.2538948],[78.4087609,17.253682],[78.4088745,17.2534696],[78.4089891,17.2532578],[78.4091052,17.2530469],[78.409223,17.252837],[78.4093428,17.2526282],[78.4094648,17.2524207],[78.4095891,17.2522146],[78.4097159,17.2520098],[78.4098451,17.2518066],[78.4099768,17.2516047],[78.41,17.25157]]},"properties":{"name":"NH-16 service corridor","road_class":"national","width_m":30.0,"source":"synthetic"}},{"type":"Feature","geometry":{"type":"LineString","coordinates":[[78.3911529,17.24],[78.3911483,17.2401828],[78.3911426,17.240667],[78.3911432,17.2411515],[78.3911492,17.2416361],[78.3911595,17.2421208],[78.3911726,17.2426056],[78.391187,17.2430904],[78.391201,17.2435752],[78.3912128,17.24406],[78.3912207,17.2445447],[78.3912232,17.2450292],[78.3912192,17.2455135],[78.3912078,17.2459976],[78.3911883,17.2464815],[78.3911608,17.2469651],[78.3911256,17.2474486],[78.3910833,17.2479318],[78.391035,17.2484149],[78.3909821,17.2488979],[78.3909263,17.2493807],[78.3908694,17.2498636],[78.3908131,17.2503464],[78.3907593,17.2508294],[78.3907095,17.2513124],[78.3906653,17.2517956],[78.3906276,17.252279],[78.3905974,17.2527625],[78.3905748,17.2532463],[78.3905599,17.2537304],[78.3905522,17.2542146],[78.3905509,17.254699],[78.3905547,17.2551835],[78.3905621,17.2556681],[78.3905717,17.2561528],[78.3905816,17.2566376],[78.3905902,17.2571222],[78.3905959,17.2576068],[78.390597,17.258]]},"properties":{"name":"Village Road 1","road_class":"village","width_m":8.0,"source":"synthetic"}},{"type":"Feature","geometry":{"type":"LineString","coordinates":[[78.3932611,17.24],[78.3932576,17.2402702],[78.3932561,17.240613],[78.3932581,17.2409557],[78.3932638,17.2412984],[78.3932732,17.241641],[78.3932862,17.2419836],[78.3933024,17.2423263],[78.3933211,17.2426689],[78.3933417,17.2430114],[78.3933632,17.243354],[78.3933848,17.2436966],[78.3934054,17.2440392],[78.3934242,17.2443818],[78.3934403,17.2447244],[78.393453,17.2450671],[78.3934617,17.2454097],[78.3934661,17.2457524],[78.3934661,17.2460951],[78.3934616,17.2464379],[78.3934531,17.2467806],[78.393441,17.2471234],[78.3934261,17.2474662],[78.3934091,17.2478091],[78.393391,17.2481519],[78.3933727,17.2484947],[78.3933552,17.2488375],[78.3933393,17.2491804],[78.393326,17.2495232],[78.3933158,17.2498659],[78.3933091,17.2502087],[78.3933062,17.2505514],[78.3933072,17.2508941],[78.3933118,17.2512368],[78.3933197,17.2515795],[78.3933302,17.2519221],[78.3933427,17.2522648],[78.3933562,17.2526074],[78.3933699,17.25295]]},"properties":{"name":"Village Road 2","road_class":"village","width_m":8.0,"source":"synthetic"}},{"type":"Feature","geometry":{"type":"LineString","coordinates":[[78.3956574,17.24],[78.3956333,17.2402393],[78.3955861,17.2407221],[78.3955418,17.2412051],[78.3955019,17.2416883],[78.3954677,17.2421718],[78.3954401,17.2426556],[78.3954197,17.2431398],[78.3954066,17.2436244],[78.3954005,17.2441093],[78.3954009,17.2445945],[78.3954066,17.2450801],[78.3954163,17.2455658],[78.3954284,17.2460517],[78.3954411,17.2465376],[78.3954527,17.2470234],[78.3954613,17.2475091],[78.3954652,17.2479945],[78.395463,17.2484796],[78.3954537,17.2489644],[78.3954363,17.2494487],[78.3954105,17.2499327],[78.3953765,17.2504162],[78.3953345,17.2508993],[78.3952856,17.251382],[78.3952308,17.2518644],[78.3951718,17.2523466],[78.3951101,17.2528287],[78.3950475,17.2533107],[78.3949859,17.2537928],[78.3949269,17.2542751],[78.3948721,17.2547575],[78.3948228,17.2552402],[78.3947797,17.2557232],[78.3947435,17.2562066],[78.3947144,17.2566904],[78.3946919,17.2571744],[78.3946756,17.2576588],[78.3946675,17.258]]},"properties":{"name":"Village Road 3","road_class":"village","width_m":8.0,"source":"synthetic"}},{"type":"Feature","geometry":{"type":"LineString","coordinates":[[78.4022094,17.24],[78.4022054,17.2401804],[78.4022039,17.2403865],[78.4022053,17.2405928],[78.4022091,17.2407992],[78.402215,17.2410057],[78.4022225,17.2412124],[78.402231,17.2414191],[78.4022401,17.2416258],[78.402249,17.2418325],[78.4022574,17.2420392],[78.4022647,17.2422458],[78.4022703,17.2424524],[78.4022738,17.2426588],[78.4022747,17.242865],[78.4022728,17.2430711],[78.4022676,17.2432769],[78.4022591,17.2434826],[78.4022471,17.2436881],[78.4022316,17.2438933],[78.4022125,17.2440983],[78.4021901,17.2443031],[78.4021645,17.2445078],[78.4021362,17.2447122],[78.4021053,17.2449165],[78.4020724,17.2451207],[78.4020379,17.2453248],[78.4020024,17.2455288],[78.4019663,17.2457328],[78.4019303,17.2459368],[78.4018949,17.2461409],[78.4018607,17.246345],[78.4018281,17.2465492],[78.4017976,17.2467535],[78.4017696,17.246958],[78.4017445,17.2471627],[78.4017227,17.2473675],[78.4017042,17.2475726]]},"properties":{"name":"Village Road 4","road_class":"village","width_m":8.0,"source":"synthetic"}},{"type":"Feature","geometry":{"type":"LineString","coordinates":[[78.4039814,17.2503447],[78.4039674,17.2505545],[78.4039567,17.2507645],[78.4039492,17.2509746],[78.4039449,17.2511848],[78.4039437,17.2513952],[78.4039453,17.2516057],[78.4039495,17.2518163],[78.4039558,17.252027],[78.4039639,17.2522378],[78.4039733,17.2524487],[78.4039836,17.2526596],[78.4039943,17.2528705],[78.4040048,17.2530814],[78.4040146,17.2532923],[78.4040232,17.2535031],[78.4040302,17.2537138],[78.4040352,17.2539245],[78.4040377,17.254135],[78.4040375,17.2543454],[78.4040343,17.2545557],[78.404028,17.2547659],[78.4040184,17.2549759],[78.4040056,17.2551857],[78.4039895,17.2553954],[78.4039704,17.255605],[78.4039485,17.2558145],[78.403924,17.2560238],[78.4038974,17.2562331],[78.403869,17.2564422],[78.4038392,17.2566513],[78.4038086,17.2568604],[78.4037776,17.2570694],[78.4037468,17.2572785],[78.4037167,17.2574876],[78.4036877,17.2576967],[78.4036604,17.2579059],[78.403649,17.258]]},"properties":{"name":"Village Road 5","road_class":"village","width_m":8.0,"source":"synthetic"}},{"type":"Feature","geometry":{"type":"LineString","coordinates":[[78.4071479,17.24],[78.4071284,17.2403903],[78.4071069,17.2408745],[78.4070886,17.2413588],[78.407074,17.241843],[78.4070634,17.2423272],[78.4070572,17.2428115],[78.4070555,17.2432957],[78.4070584,17.2437799],[78.4070658,17.2442642],[78.4070776,17.2447484],[78.4070934,17.2452326],[78.407113,17.2457168],[78.4071358,17.246201],[78.4071613,17.2466852],[78.4071889,17.2471693],[78.4072179,17.2476535],[78.4072476,17.2481377],[78.4072774,17.2486219],[78.4073064,17.2491061],[78.4073341,17.2495903],[78.4073597,17.2500745],[78.4073826,17.2505587],[78.4074023,17.2510429],[78.4074183,17.2515271],[78.4074302,17.2520113],[78.4074378,17.2524955],[78.4074409,17.2529797],[78.4074394,17.253464],[78.4074334,17.2539482],[78.407423,17.2544324],[78.4074085,17.2549167],[78.4073904,17.2554009],[78.4073689,17.2558852],[78.4073448,17.2563694],[78.4073186,17.2568537],[78.407291,17.257338],[78.4072626,17.2578222],[78.4072522,17.258]]},"properties":{"name":"Village Road 6","road_class":"village","width_m":8.0,"source":"synthetic"}},{"type":"Feature","geometry":{"type":"LineString","coordinates":[[78.388,17.242082],[78.3882587,17.2420925],[78.3886845,17.2421075],[78.3891103,17.2421199],[78.3895361,17.2421293],[78.3899619,17.2421355],[78.3903876,17.2421382],[78.3908134,17.2421375],[78.3912392,17.2421333],[78.3916649,17.2421257],[78.3920906,17.2421148],[78.3925164,17.242101],[78.3929421,17.2420845],[78.3933678,17.2420656],[78.3937936,17.242045],[78.3942193,17.242023],[78.394645,17.2420001],[78.3950707,17.241977],[78.3954964,17.2419541],[78.3959221,17.241932],[78.3963478,17.2419112],[78.3967736,17.2418923],[78.3971993,17.2418756],[78.397625,17.2418615],[78.3980508,17.2418505],[78.3984765,17.2418426],[78.3989023,17.2418382],[78.399328,17.2418372],[78.3997538,17.2418398],[78.4001796,17.2418457],[78.4006054,17.2418549],[78.4010312,17.241867],[78.401457,17.2418819],[78.4018828,17.241899],[78.4023086,17.241918],[78.4027344,17.2419383],[78.4031602,17.2419595],[78.403586,17.241981],[78.4040118,17.2420021],[78.4044376,17.2420225]]},"properties":{"name":"Cross Road 1","road_class":"village","width_m":8.0,"source":"synthetic"}},{"type":"Feature","geometry":{"type":"LineString","coordinates":[[78.3986148,17.2446952],[78.398918,17.2447032],[78.3992213,17.2447095],[78.3995246,17.244714],[78.3998279,17.2447167],[78.4001313,17.2447177],[78.4004347,17.244717],[78.4007381,17.2447149],[78.4010416,17.2447114],[78.401345,17.2447067],[78.4016485,17.2447011],[78.401952,17.2446948],[78.4022555,17.2446881],[78.402559,17.2446812],[78.4028624,17.2446745],[78.4031659,17.2446683],[78.4034694,17.2446627],[78.4037729,17.244658],[78.4040763,17.2446545],[78.4043797,17.2446524],[78.4046831,17.2446517],[78.4049865,17.2446528],[78.4052898,17.2446555],[78.4055931,17.2446601],[78.4058964,17.2446664],[78.4061997,17.2446744],[78.4065029,17.2446841],[78.4068061,17.2446953],[78.4071093,17.2447078],[78.4074124,17.2447216],[78.4077156,17.2447362],[78.4080187,17.2447515],[78.4083218,17.2447672],[78.408625,17.2447831],[78.4089281,17.2447988],[78.4092312,17.2448141],[78.4095344,17.2448288],[78.4098376,17.2448425],[78.41,17.2448492]]},"properties":{"name":"Cross Road 2","road_class":"village","width_m":8.0,"source":"synthetic"}},{"type":"Feature","geometry":{"type":"LineString","coordinates":[[78.388,17.2504387],[78.3881396,17.2504518],[78.3885643,17.2504919],[78.388989,17.2505317],[78.3894138,17.2505704],[78.3898386,17.2506075],[78.3902635,17.2506423],[78.3906885,17.2506743],[78.3911136,17.250703],[78.3915388,17.2507279],[78.3919641,17.2507488],[78.3923896,17.2507654],[78.3928152,17.2507777],[78.3932409,17.2507855],[78.3936668,17.2507892],[78.3940928,17.2507887],[78.3945189,17.2507846],[78.3949451,17.250777],[78.3953714,17.2507667],[78.3957977,17.250754],[78.3962242,17.2507397],[78.3966506,17.2507243],[78.3970771,17.2507085],[78.3975035,17.2506931],[78.39793,17.2506787],[78.3983563,17.250666],[78.3987826,17.2506556],[78.3992088,17.250648],[78.399635,17.2506437],[78.4000609,17.2506431],[78.4004868,17.2506466],[78.4009126,17.2506543],[78.4013382,17.2506664],[78.4017636,17.2506829],[78.402189,17.2507036],[78.4026142,17.2507284],[78.4030393,17.2507569],[78.4034643,17.2507888],[78.4038892,17.2508235],[78.404314,17.2508605]]},"properties":{"name":"Cross Road 3","road_class":"village","width_m":8.0,"source":"synthetic"}},{"type":"Feature","geometry":{"type":"LineString","coordinates":[[78.388,17.2528465],[78.3884243,17.2528551],[78.3890088,17.2528621],[78.3895933,17.2528638],[78.3901778,17.2528599],[78.3907623,17.2528507],[78.3913469,17.2528364],[78.3919314,17.2528179],[78.392516,17.2527961],[78.3931007,17.2527722],[78.3936853,17.2527476],[78.3942699,17.2527238],[78.3948545,17.2527021],[78.3954391,17.2526838],[78.3960236,17.2526703],[78.3966081,17.2526623],[78.3971926,17.2526606],[78.3977771,17.2526655],[78.3983616,17.2526771],[78.398946,17.2526951],[78.3995303,17.2527187],[78.4001147,17.2527472],[78.400699,17.2527793],[78.4012834,17.2528137],[78.4018677,17.2528489],[78.402452,17.2528835],[78.4030363,17.2529161],[78.4036207,17.2529454],[78.4042051,17.2529703],[78.4047895,17.25299],[78.4053739,17.2530039],[78.4059583,17.2530118],[78.4065428,17.2530139],[78.4071273,17.2530106],[78.4077119,17.2530027],[78.4082964,17.2529912],[78.408881,17.2529772],[78.4094656,17.2529621],[78.41,17.2529485]]},"properties":{"name":"Cross Road 4","road_class":"village","width_m":8.0,"source":"synthetic"}},{"type":"Feature","geometry":{"type":"LineString","coordinates":[[78.388,17.2558659],[78.3880882,17.2558747],[78.3883798,17.2559013],[78.3886715,17.2559248],[78.3889632,17.2559448],[78.3892551,17.2559611],[78.3895472,17.2559733],[78.3898393,17.2559816],[78.3901316,17.2559857],[78.390424,17.2559859],[78.3907165,17.2559824],[78.3910091,17.2559754],[78.3913018,17.2559653],[78.3915946,17.2559525],[78.3918875,17.2559376],[78.3921804,17.2559212],[78.3924733,17.2559038],[78.3927662,17.2558861],[78.3930592,17.2558688],[78.3933521,17.2558524],[78.3936449,17.2558375],[78.3939377,17.2558248],[78.3942304,17.2558148],[78.394523,17.2558078],[78.3948155,17.2558044],[78.3951079,17.2558046],[78.3954002,17.2558089],[78.3956924,17.2558172],[78.3959844,17.2558296],[78.3962763,17.2558459],[78.3965681,17.255866],[78.3968597,17.2558895],[78.3971513,17.2559162],[78.3974428,17.2559455],[78.3977343,17.2559769],[78.3980257,17.2560098],[78.398317,17.2560437],[78.3986084,17.256078],[78.3988997,17.2561118]]},"properties":{"name":"Cross Road 5","road_class":"village","width_m":8.0,"source":"synthetic"}},{"type":"Feature","geometry":{"type":"LineString","coordinates":[[78.389117,17.24],[78.3891147,17.2401165],[78.3891114,17.2402583],[78.3891081,17.2404002],[78.3891053,17.2405421],[78.3891033,17.2406839],[78.3891026,17.2408257],[78.3891037,17.2409674],[78.3891066,17.2411091],[78.3891117,17.2412508],[78.3891189,17.2413924],[78.3891282,17.241534],[78.3891394,17.2416755],[78.3891523,17.241817],[78.3891664,17.2419584],[78.3891814,17.2420999],[78.3891967,17.2422413],[78.3892118,17.2423827],[78.3892263,17.2425242],[78.3892396,17.2426656],[78.3892514,17.2428071],[78.3892614,17.2429487],[78.3892692,17.2430903],[78.3892749,17.2432319],[78.3892783,17.2433736],[78.3892796,17.2435154],[78.3892791,17.2436572],[78.3892769,17.243799],[78.3892736,17.2439409],[78.3892695,17.2440827],[78.3892651,17.2442246],[78.389261,17.2443665],[78.3892575,17.2445084],[78.3892551,17.2446502],[78.3892541,17.244792],[78.3892548,17.2449338],[78.3892573,17.2450755],[78.3892617,17.2452172]]},"properties":{"name":"1st Street","road_class":"village","width_m":7.0,"source":"synthetic"}},{"type":"Feature","geometry":{"type":"LineString","coordinates":[[78.392028,17.24],[78.3920286,17.2400117],[78.3920377,17.2401533],[78.3920478,17.2402949],[78.3920587,17.2404364],[78.3920697,17.2405779],[78.3920806,17.2407194],[78.3920908,17.240861],[78.3920998,17.2410026],[78.3921072,17.2411442],[78.3921128,17.2412858],[78.3921163,17.2414275],[78.3921177,17.2415693],[78.3921168,17.2417111],[78.3921139,17.2418529],[78.3921091,17.2419948],[78.3921029,17.2421367],[78.3920955,17.2422787],[78.3920874,17.2424206],[78.3920792,17.2425626],[78.3920714,17.2427046],[78.3920644,17.2428465],[78.3920586,17.2429884],[78.3920546,17.2431303],[78.3920524,17.2432721],[78.3920524,17.2434139],[78.3920546,17.2435557],[78.3920589,17.2436973],[78.3920651,17.243839],[78.3920731,17.2439806],[78.3920825,17.2441221],[78.3920928,17.2442637],[78.3921036,17.2444052],[78.3921144,17.2445467],[78.3921247,17.2446883],[78.3921342,17.2448298],[78.3921424,17.2449714],[78.392149,17.245113],[78.3921539,17.2452547]]},"properties":{"name":"2nd Street","road_class":"village","width_m":7.0,"source":"synthetic"}},{"type":"Feature","geometry":{"type":"LineString","coordinates":[[78.388,17.2410032],[78.3881409,17.24101],[78.3883123,17.2410173],[78.3884838,17.2410238],[78.3886554,17.2410294],[78.388827,17.2410341],[78.3889986,17.2410381],[78.3891702,17.2410413],[78.3893419,17.2410438],[78.3895136,17.2410459],[78.3896853,17.2410475],[78.389857,17.2410488],[78.3900287,17.24105],[78.3902005,17.2410511],[78.3903722,17.2410524],[78.3905439,17.2410539],[78.3907156,17.2410558],[78.3908873,17.2410582],[78.3910589,17.2410613],[78.3912306,17.241065],[78.3914021,17.2410695],[78.3915737,17.2410749],[78.3917452,17.2410811],[78.3919167,17.2410882],[78.3920881,17.2410962],[78.3922595,17.2411051],[78.3924309,17.2411148],[78.3926022,17.2411251],[78.3927735,17.2411362],[78.3929448,17.2411477],[78.3931161,17.2411597],[78.3932873,17.241172],[78.3934586,17.2411844],[78.3936298,17.2411969],[78.3938011,17.2412092],[78.3939723,17.2412213],[78.3941436,17.241233],[78.3943149,17.2412441],[78.3944862,17.2412547],[78.3946576,17.2412645]]},"properties":{"name":"Main Bazaar Lane 1","road_class":"village","width_m":7.0,"source":"synthetic"}},{"type":"Feature","geometry":{"type":"LineString","coordinates":[[78.388,17.2433798],[78.3881075,17.243385],[78.3882789,17.2433941],[78.3884502,17.243404],[78.3886216,17.2434147],[78.3887929,17.2434259],[78.3889642,17.2434376],[78.3891354,17.2434497],[78.3893067,17.2434621],[78.3894779,17.2434745],[78.3896492,17.2434869],[78.3898204,17.2434992],[78.3899917,17.2435111],[78.390163,17.2435227],[78.3903343,17.2435337],[78.3905056,17.243544],[78.390677,17.2435536],[78.3908484,17.2435624],[78.3910198,17.2435703],[78.3911913,17.2435774],[78.3913628,17.2435835],[78.3915344,17.2435888],[78.391706,17.2435933],[78.3918776,17.2435969],[78.3920493,17.2435999],[78.3922209,17.2436023],[78.3923926,17.2436042],[78.3925644,17.2436056],[78.3927361,17.2436069],[78.3929078,17.243608],[78.3930796,17.2436092],[78.3932513,17.2436105],[78.393423,17.2436122],[78.3935947,17.2436142],[78.3937664,17.2436169],[78.393938,17.2436201],[78.3941096,17.2436241],[78.3942812,17.2436289],[78.3944527,17.2436346],[78.3946242,17.2436411]]},"properties":{"name":"Main Bazaar Lane 2","road_class":"village","width_m":7.0,"source":"synthetic"}},{"type":"Feature","geometry":{"type":"LineString","coordinates":[[78.388,17.2457558],[78.3880742,17.2457583],[78.3882458,17.2457633],[78.3884174,17.2457674],[78.388589,17.2457708],[78.3887607,17.2457735],[78.3889324,17.2457756],[78.3891041,17.2457773],[78.3892758,17.2457787],[78.3894475,17.2457799],[78.3896193,17.2457811],[78.389791,17.2457823],[78.3899627,17.2457837],[78.3901344,17.2457855],[78.3903061,17.2457878],[78.3904778,17.2457907],[78.3906494,17.2457942],[78.390821,17.2457986],[78.3909926,17.2458037],[78.3911641,17.2458097],[78.3913356,17.2458166],[78.391507,17.2458244],[78.3916785,17.2458331],[78.3918498,17.2458425],[78.3920212,17.2458527],[78.3921925,17.2458636],[78.3923638,17.2458751],[78.3925351,17.245887],[78.3927063,17.2458992],[78.3928776,17.2459116],[78.3930488,17.245924],[78.3932201,17.2459364],[78.3933913,17.2459485],[78.3935626,17.2459603],[78.3937339,17.2459717],[78.3939052,17.2459824],[78.3940766,17.2459924],[78.394248,17.2460017],[78.3944194,17.2460101],[78.3945909,17.2460177]]},"properties":{"name":"Main Bazaar Lane 3","road_class":"village","width_m":7.0,"source":"synthetic"}},{"type":"Feature","geometry":{"type":"LineString","coordinates":[[78.4039578,17.2520805],[78.4027153,17.2521247]]},"properties":{"name":"Lane 1","road_class":"lane","width_m":4.5,"source":"synthetic"}},{"type":"Feature","geometry":{"type":"LineString","coordinates":[[78.395465,17.2479729],[78.3940888,17.2479692]]},"properties":{"name":"Lane 2","road_class":"lane","width_m":4.5,"source":"synthetic"}},{"type":"Feature","geometry":{"type":"LineString","coordinates":[[78.3929631,17.2436084],[78.3929722,17.2423826]]},"properties":{"name":"Lane 3","road_class":"lane","width_m":4.5,"source":"synthetic"}},{"type":"Feature","geometry":{"type":"LineString","coordinates":[[78.399033,17.2506511],[78.3990079,17.2493535]]},"properties":{"name":"Lane 4","road_class":"lane","width_m":4.5,"source":"synthetic"}},{"type":"Feature","geometry":{"type":"LineString","coordinates":[[78.4040002,17.2552551],[78.4052361,17.2553424]]},"properties":{"name":"Lane 5","road_class":"lane","width_m":4.5,"source":"synthetic"}},{"type":"Feature","geometry":{"type":"LineString","coordinates":[[78.3891288,17.2415417],[78.3900651,17.2414731]]},"properties":{"name":"Lane 6","road_class":"lane","width_m":4.5,"source":"synthetic"}},{"type":"Feature","geometry":{"type":"LineString","coordinates":[[78.3918341,17.2458417],[78.3919139,17.2445822]]},"properties":{"name":"Lane 7","road_class":"lane","width_m":4.5,"source":"synthetic"}}]}