{"type":"FeatureCollection","features":[{"type":"Feature","geometry":{"type":"MultiPolygon","coordinates":[[[[80.545,16.434],[80.54555,16.434],[80.5461,16.434],[80.54665,16.434],[80.5472,16.434],[80.54775,16.434],[80.5483,16.434],[80.54885,16.434],[80.5494,16.434],[80.54995,16.434],[80.5505,16.434],[80.55105,16.434],[80.5516,16.434],[80.55215,16.434],[80.5527,16.434],[80.55325,16.434],[80.5538,16.434],[80.55435,16.434],[80.5549,16.434],[80.55545,16.434],[80.556,16.434],[80.55655,16.434],[80.5571,16.434],[80.55765,16.434],[80.5582,16.434],[80.55875,16.434],[80.5593,16.434],[80.55985,16.434],[80.5604,16.434],[80.56095,16.434],[80.5615,16.434],[80.56205,16.434],[80.5626,16.434],[80.56315,16.434],[80.5637,16.434],[80.56425,16.434],[80.5648,16.434],[80.56535,16.434],[80.5659,16.434],[80.56645,16.434],[80.567,16.434],[80.567,16.43445],[80.567,16.4349],[80.567,16.43535],[80.567,16.4358],[80.567,16.43625],[80.567,16.4367],[80.567,16.43715],[80.567,16.4376],[80.567,16.43805],[80.567,16.4385],[80.567,16.43895],[80.567,16.4394],[80.567,16.43985],[80.567,16.4403],[80.567,16.44075],[80.567,16.4412],[80.567,16.44165],[80.567,16.4421],[80.567,16.44255],[80.567,16.443],[80.567,16.44345],[80.567,16.4439],[80.567,16.44435],[80.567,16.4448],[80.567,16.44525],[80.567,16.4457],[80.567,16.44615],[80.567,16.4466],[80.567,16.44705],[80.567,16.4475],[80.567,16.44795],[80.567,16.4484],[80.567,16.44885],[80.567,16.4493],[80.567,16.44975],[80.567,16.4502],[80.567,16.45065],[80.567,16.4511],[80.567,16.45155],[80.567,16.452],[80.56645,16.452],[80.5659,16.452],[80.56535,16.452],[80.5648,16.452],[80.56425,16.452],[80.5637,16.452],[80.56315,16.452],[80.5626,16.452],[80.56205,16.452],[80.5615,16.452],[80.56095,16.452],[80.5604,16.452],[80.55985,16.452],[80.5593,16.452],[80.55875,16.452],[80.5582,16.452],[80.55765,16.452],[80.5571,16.452],[80.55655,16.452],[80.556,16.452],[80.55545,16.452],[80.5549,16.452],[80.55435,16.452],[80.5538,16.452],[80.55325,16.452],[80.5527,16.452],[80.55215,16.452],[80.5516,16.452],[80.55105,16.452],[80.5505,16.452],[80.54995,16.452],[80.5494,16.452],[80.54885,16.452],[80.5483,16.452],[80.54775,16.452],[80.5472,16.452],[80.54665,16.452],[80.5461,16.452],[80.54555,16.452],[80.545,16.452],[80.545,16.45155],[80.545,16.4511],[80.545,16.45065],[80.545,16.4502],[80.545,16.44975],[80.545,16.4493],[80.545,16.44885],[80.545,16.4484],[80.545,16.44795],[80.545,16.4475],[80.545,16.44705],[80.545,16.4466],[80.545,16.44615],[80.545,16.4457],[80.545,16.44525],[80.545,16.4448],[80.545,16.44435],[80.545,16.4439],[80.545,16.44345],[80.545,16.443],[80.545,16.44255],[80.545,16.4421],[80.545,16.44165],[80.545,16.4412],[80.545,16.44075],[80.545,16.4403],[80.545,16.43985],[80.545,16.4394],[80.545,16.43895],[80.545,16.4385],[80.545,16.43805],[80.545,16.4376],[80.545,16.43715],[80.545,16.4367],[80.545,16.43625],[80.545,16.4358],[80.545,16.43535],[80.545,16.4349],[80.545,16.43445],[80.545,16.434]]]]},"properties":{"name":"Mangalagiri (R) \u2014 demo","state":"AP"}},{"type":"Feature","geometry":{"type":"MultiPolygon","coordinates":[[[[79.94,12.945],[79.94055,12.945],[79.9411,12.945],[79.94165,12.945],[79.9422,12.945],[79.94275,12.945],[79.9433,12.945],[79.94385,12.945],[79.9444,12.945],[79.94495,12.945],[79.9455,12.945],[79.94605,12.945],[79.9466,12.945],[79.94715,12.945],[79.9477,12.945],[79.94825,12.945],[79.9488,12.945],[79.94935,12.945],[79.9499,12.945],[79.95045,12.945],[79.951,12.945],[79.95155,12.945],[79.9521,12.945],[79.95265,12.945],[79.9532,12.945],[79.95375,12.945],[79.9543,12.945],[79.95485,12.945],[79.9554,12.945],[79.95595,12.945],[79.9565,12.945],[79.95705,12.945],[79.9576,12.945],[79.95815,12.945],[79.9587,12.945],[79.95925,12.945],[79.9598,12.945],[79.96035,12.945],[79.9609,12.945],[79.96145,12.945],[79.962,12.945],[79.962,12.94545],[79.962,12.9459],[79.962,12.94635],[79.962,12.9468],[79.962,12.94725],[79.962,12.9477],[79.962,12.94815],[79.962,12.9486],[79.962,12.94905],[79.962,12.9495],[79.962,12.94995],[79.962,12.9504],[79.962,12.95085],[79.962,12.9513],[79.962,12.95175],[79.962,12.9522],[79.962,12.95265],[79.962,12.9531],[79.962,12.95355],[79.962,12.954],[79.962,12.95445],[79.962,12.9549],[79.962,12.95535],[79.962,12.9558],[79.962,12.95625],[79.962,12.9567],[79.962,12.95715],[79.962,12.9576],[79.962,12.95805],[79.962,12.9585],[79.962,12.95895],[79.962,12.9594],[79.962,12.95985],[79.962,12.9603],[79.962,12.96075],[79.962,12.9612],[79.962,12.96165],[79.962,12.9621],[79.962,12.96255],[79.962,12.963],[79.96145,12.963],[79.9609,12.963],[79.96035,12.963],[79.9598,12.963],[79.95925,12.963],[79.9587,12.963],[79.95815,12.963],[79.9576,12.963],[79.95705,12.963],[79.9565,12.963],[79.95595,12.963],[79.9554,12.963],[79.95485,12.963],[79.9543,12.963],[79.95375,12.963],[79.9532,12.963],[79.95265,12.963],[79.9521,12.963],[79.95155,12.963],[79.951,12.963],[79.95045,12.963],[79.9499,12.963],[79.94935,12.963],[79.9488,12.963],[79.94825,12.963],[79.9477,12.963],[79.94715,12.963],[79.9466,12.963],[79.94605,12.963],[79.9455,12.963],[79.94495,12.963],[79.9444,12.963],[79.94385,12.963],[79.9433,12.963],[79.94275,12.963],[79.9422,12.963],[79.94165,12.963],[79.9411,12.963],[79.94055,12.963],[79.94,12.963],[79.94,12.96255],[79.94,12.9621],[79.94,12.96165],[79.94,12.9612],[79.94,12.96075],[79.94,12.9603],[79.94,12.95985],[79.94,12.9594],[79.94,12.95895],[79.94,12.9585],[79.94,12.95805],[79.94,12.9576],[79.94,12.95715],[79.94,12.9567],[79.94,12.95625],[79.94,12.9558],[79.94,12.95535],[79.94,12.9549],[79.94,12.95445],[79.94,12.954],[79.94,12.95355],[79.94,12.9531],[79.94,12.95265],[79.94,12.9522],[79.94,12.95175],[79.94,12.9513],[79.94,12.95085],[79.94,12.9504],[79.94,12.94995],[79.94,12.9495],[79.94,12.94905],[79.94,12.9486],[79.94,12.94815],[79.94,12.9477],[79.94,12.94725],[79.94,12.9468],[79.94,12.94635],[79.94,12.9459],[79.94,12.94545],[79.94,12.945]]]]},"properties":{"name":"Sriperumbudur (R) \u2014 demo","state":"TN"}},{"type":"Feature","geometry":{"type":"MultiPolygon","coordinates":[[[[78.388,17.24],[78.38855,17.24],[78.3891,17.24],[78.38965,17.24],[78.3902,17.24],[78.39075,17.24],[78.3913,17.24],[78.39185,17.24],[78.3924,17.24],[78.39295,17.24],[78.3935,17.24],[78.39405,17.24],[78.3946,17.24],[78.39515,17.24],[78.3957,17.24],[78.39625,17.24],[78.3968,17.24],[78.39735,17.24],[78.3979,17.24],[78.39845,17.24],[78.399,17.24],[78.39955,17.24],[78.4001,17.24],[78.40065,17.24],[78.4012,17.24],[78.40175,17.24],[78.4023,17.24],[78.40285,17.24],[78.4034,17.24],[78.40395,17.24],[78.4045,17.24],[78.40505,17.24],[78.4056,17.24],[78.40615,17.24],[78.4067,17.24],[78.40725,17.24],[78.4078,17.24],[78.40835,17.24],[78.4089,17.24],[78.40945,17.24],[78.41,17.24],[78.41,17.24045],[78.41,17.2409],[78.41,17.24135],[78.41,17.2418],[78.41,17.24225],[78.41,17.2427],[78.41,17.24315],[78.41,17.2436],[78.41,17.24405],[78.41,17.2445],[78.41,17.24495],[78.41,17.2454],[78.41,17.24585],[78.41,17.2463],[78.41,17.24675],[78.41,17.2472],[78.41,17.24765],[78.41,17.2481],[78.41,17.24855],[78.41,17.249],[78.41,17.24945],[78.41,17.2499],[78.41,17.25035],[78.41,17.2508],[78.41,17.25125],[78.41,17.2517],[78.41,17.25215],[78.41,17.2526],[78.41,17.25305],[78.41,17.2535],[78.41,17.25395],[78.41,17.2544],[78.41,17.25485],[78.41,17.2553],[78.41,17.25575],[78.41,17.2562],[78.41,17.25665],[78.41,17.2571],[78.41,17.25755],[78.41,17.258],[78.40945,17.258],[78.4089,17.258],[78.40835,17.258],[78.4078,17.258],[78.40725,17.258],[78.4067,17.258],[78.40615,17.258],[78.4056,17.258],[78.40505,17.258],[78.4045,17.258],[78.40395,17.258],[78.4034,17.258],[78.40285,17.258],[78.4023,17.258],[78.40175,17.258],[78.4012,17.258],[78.40065,17.258],[78.4001,17.258],[78.39955,17.258],[78.399,17.258],[78.39845,17.258],[78.3979,17.258],[78.39735,17.258],[78.3968,17.258],[78.39625,17.258],[78.3957,17.258],[78.39515,17.258],[78.3946,17.258],[78.39405,17.258],[78.3935,17.258],[78.39295,17.258],[78.3924,17.258],[78.39185,17.258],[78.3913,17.258],[78.39075,17.258],[78.3902,17.258],[78.38965,17.258],[78.3891,17.258],[78.38855,17.258],[78.388,17.258],[78.388,17.25755],[78.388,17.2571],[78.388,17.25665],[78.388,17.2562],[78.388,17.25575],[78.388,17.2553],[78.388,17.25485],[78.388,17.2544],[78.388,17.25395],[78.388,17.2535],[78.388,17.25305],[78.388,17.2526],[78.388,17.25215],[78.388,17.2517],[78.388,17.25125],[78.388,17.2508],[78.388,17.25035],[78.388,17.2499],[78.388,17.24945],[78.388,17.249],[78.388,17.24855],[78.388,17.2481],[78.388,17.24765],[78.388,17.2472],[78.388,17.24675],[78.388,17.2463],[78.388,17.24585],[78.388,17.2454],[78.388,17.24495],[78.388,17.2445],[78.388,17.24405],[78.388,17.2436],[78.388,17.24315],[78.388,17.2427],[78.388,17.24225],[78.388,17.2418],[78.388,17.24135],[78.388,17.2409],[78.388,17.24045],[78.388,17.24]]]]},"properties":{"name":"Shamshabad (R) \u2014 demo","state":"TG"}}]}