{"type":"FeatureCollection","features":[{"type":"Feature","geometry":{"type":"MultiPolygon","coordinates":[[[[80.5494455,16.4371036],[80.5494267,16.4370304],[80.5494005,16.4369594],[80.5493673,16.4368912],[80.5493273,16.4368264],[80.5492808,16.4367657],[80.5492285,16.4367097],[80.5491707,16.436659],[80.5491081,16.4366139],[80.5490411,16.436575],[80.5489706,16.4365426],[80.5488971,16.4365171],[80.5488213,16.4364986],[80.5487441,16.4364873],[80.548666,16.4364835],[80.548588,16.436487],[80.5485107,16.4364979],[80.5484348,16.4365161],[80.5483612,16.4365413],[80.5482905,16.4365734],[80.5482234,16.436612],[80.5481605,16.4366568],[80.5481025,16.4367073],[80.5480499,16.4367631],[80.5480032,16.4368235],[80.5479629,16.4368881],[80.5479294,16.4369562],[80.5479029,16.4370272],[80.5478837,16.4371003],[80.5478721,16.4371748],[80.5478681,16.4372501],[80.5478717,16.4373255],[80.547883,16.4374001],[80.5479018,16.4374733],[80.547928,16.4375443],[80.5479613,16.4376126],[80.5480013,16.4376773],[80.5480477,16.437738],[80.5481,16.437794],[80.5481578,16.4378447],[80.5482204,16.4378898],[80.5482874,16.4379287],[80.5483579,16.4379611],[80.5484314,16.4379866],[80.5485072,16.4380051],[80.5485845,16.4380164],[80.5486625,16.4380202],[80.5487405,16.4380167],[80.5488179,16.4380058],[80.5488937,16.4379876],[80.5489673,16.4379624],[80.549038,16.4379303],[80.5491051,16.4378917],[80.549168,16.4378469],[80.549226,16.4377964],[80.5492786,16.4377406],[80.5493253,16.4376802],[80.5493656,16.4376156],[80.5493992,16.4375475],[80.5494257,16.4374765],[80.5494448,16.4374034],[80.5494564,16.4373289],[80.5494604,16.4372536],[80.5494568,16.4371782],[80.5494455,16.4371036]]]]},"properties":{"zone_code":"PUB","name":"Public / semi-public","permissible_uses":["public"]}},{"type":"Feature","geometry":{"type":"MultiPolygon","coordinates":[[[[80.5626129,16.4424728],[80.5663599,16.4424806],[80.5663675,16.4390517],[80.5626206,16.439044],[80.5626129,16.4424728]]]]},"properties":{"zone_code":"IND","name":"Industrial","permissible_uses":["industrial","commercial"]}},{"type":"Feature","geometry":{"type":"MultiPolygon","coordinates":[[[[80.5453038,16.4355004],[80.5454736,16.43551],[80.5454754,16.4355101],[80.5456453,16.4355187],[80.5456476,16.4355188],[80.5458175,16.4355259],[80.5458202,16.435526],[80.5459902,16.4355314],[80.5459932,16.4355315],[80.5461632,16.435535],[80.5461663,16.435535],[80.5463363,16.4355366],[80.5463394,16.4355366],[80.5465095,16.4355363],[80.5465122,16.4355363],[80.5466824,16.4355343],[80.5466848,16.4355342],[80.546855,16.4355307],[80.5468568,16.4355307],[80.5470271,16.435526],[80.5470282,16.435526],[80.5471985,16.4355206],[80.5471989,16.4355206],[80.547369,16.435515],[80.5475386,16.4355097],[80.5477074,16.435505],[80.5478755,16.4355015],[80.548043,16.4354995],[80.5482099,16.4354994],[80.5483766,16.4355013],[80.5485431,16.4355053],[80.5487096,16.4355115],[80.5488762,16.4355198],[80.5490433,16.4355299],[80.5492108,16.4355417],[80.5493789,16.4355547],[80.5495478,16.4355685],[80.5497172,16.4355827],[80.5498872,16.4355967],[80.5498881,16.4355968],[80.5499534,16.435602],[80.5500162,16.4354338],[80.5501022,16.4351058],[80.5500999,16.4351056],[80.5499315,16.4350923],[80.5497624,16.4350783],[80.5495928,16.4350641],[80.5495924,16.4350641],[80.5494227,16.4350502],[80.5494214,16.4350501],[80.5492517,16.435037],[80.5492498,16.4350368],[80.54908,16.4350249],[80.5490775,16.4350248],[80.5489077,16.4350144],[80.5489047,16.4350143],[80.5487348,16.4350059],[80.5487314,16.4350057],[80.5485615,16.4349994],[80.548558,16.4349993],[80.548388,16.4349952],[80.5483845,16.4349951],[80.5482144,16.4349932],[80.5482111,16.4349932],[80.548041,16.4349933],[80.548038,16.4349933],[80.5478678,16.4349953],[80.5478654,16.4349954],[80.5476952,16.4349989],[80.5476933,16.434999],[80.5475231,16.4350037],[80.547522,16.4350037],[80.5473517,16.4350091],[80.5473513,16.4350091],[80.5471812,16.4350147],[80.5470117,16.43502],[80.5468429,16.4350246],[80.5466748,16.4350281],[80.5465071,16.4350301],[80.5463399,16.4350304],[80.5461729,16.4350288],[80.5460059,16.4350254],[80.5458388,16.4350201],[80.5456714,16.4350131],[80.5455036,16.4350046],[80.5453352,16.4349951],[80.5451662,16.4349848],[80.545017,16.4349754],[80.545,16.4349752],[80.545,16.43535],[80.545,16.4354817],[80.5451325,16.4354899],[80.5451329,16.43549],[80.5453027,16.4355003],[80.5453038,16.4355004]]],[[[80.5453154,16.4378226],[80.5454855,16.4378221],[80.5454871,16.4378221],[80.5456573,16.4378205],[80.5456582,16.4378205],[80.5458284,16.4378184],[80.5459986,16.4378162],[80.5461679,16.4378142],[80.5463364,16.4378131],[80.5465044,16.4378131],[80.5466717,16.4378147],[80.5468387,16.4378181],[80.5470053,16.4378234],[80.5471719,16.4378309],[80.5473385,16.4378403],[80.5475054,16.4378517],[80.5476726,16.4378648],[80.5478405,16.4378793],[80.5480089,16.4378948],[80.5481781,16.4379109],[80.5482562,16.4379184],[80.5482622,16.4379141],[80.5482204,16.4378898],[80.5481578,16.4378447],[80.5481,16.437794],[80.5480477,16.437738],[80.5480013,16.4376773],[80.5479613,16.4376126],[80.547928,16.4375443],[80.5479018,16.4374733],[80.547883,16.4374001],[80.5478791,16.4373744],[80.5477183,16.4373605],[80.5477161,16.4373603],[80.5475464,16.437347],[80.5475437,16.4373468],[80.547374,16.4373353],[80.5473709,16.4373351],[80.547201,16.4373254],[80.5471977,16.4373252],[80.5470278,16.4373177],[80.5470245,16.4373175],[80.5468545,16.4373121],[80.5468513,16.437312],[80.5466812,16.4373086],[80.5466783,16.4373085],[80.5465082,16.4373069],[80.5465058,16.4373069],[80.5463356,16.4373069],[80.5463337,16.4373069],[80.5461636,16.437308],[80.5461623,16.437308],[80.5459921,16.43731],[80.5459916,16.43731],[80.5458215,16.4373122],[80.5456519,16.4373143],[80.545483,16.4373158],[80.5453147,16.4373164],[80.5451469,16.4373156],[80.5450037,16.4373137],[80.545,16.4373138],[80.545,16.4376],[80.545,16.4378199],[80.5451407,16.4378218],[80.5451432,16.4378218],[80.5453133,16.4378226],[80.5453154,16.4378226]]],[[[80.555401,16.4415267],[80.5554126,16.4416178],[80.5554739,16.4420949],[80.555534,16.4425708],[80.5555551,16.4427439],[80.5556332,16.4427553],[80.5558076,16.4427639],[80.5559821,16.442756],[80.5561549,16.4427316],[80.5563244,16.442691],[80.5564851,16.4426359],[80.5564642,16.4424644],[80.556464,16.4424624],[80.5564037,16.441985],[80.5564035,16.4419841],[80.5563422,16.441507],[80.5563371,16.441467],[80.5566034,16.4414514],[80.5571779,16.4414226],[80.5575505,16.4414073],[80.5575563,16.4413851],[80.5575823,16.4412184],[80.5575913,16.4410501],[80.5575831,16.4408817],[80.5575578,16.4407149],[80.5575158,16.4405514],[80.5574986,16.4405047],[80.557136,16.4405195],[80.5571315,16.4405197],[80.5565527,16.4405488],[80.5565486,16.440549],[80.5562236,16.440568],[80.556222,16.440555],[80.5561656,16.4400806],[80.5561132,16.4396071],[80.5560875,16.4393516],[80.5559899,16.4393374],[80.5558154,16.4393288],[80.555641,16.4393367],[80.5554682,16.4393611],[80.5552987,16.4394016],[80.5551564,16.4394504],[80.555181,16.4396965],[80.5551815,16.4397009],[80.5552344,16.4401784],[80.5552348,16.4401819],[80.5552879,16.4406284],[80.5548061,16.440663],[80.5548039,16.4406632],[80.5542253,16.4407074],[80.5542239,16.4407075],[80.5540648,16.4407201],[80.5540408,16.4408742],[80.5540318,16.4410426],[80.55404,16.4412109],[80.5540652,16.4413777],[80.5541073,16.4415413],[80.5541368,16.4416214],[80.5543,16.4416085],[80.5548768,16.4415644],[80.555401,16.4415267]]]]},"properties":{"zone_code":"C1","name":"Commercial","permissible_uses":["commercial","residential"]}},{"type":"Feature","geometry":{"type":"MultiPolygon","coordinates":[[[[80.5455421,16.4366145],[80.5458098,16.4365504],[80.5460696,16.4364613],[80.5463192,16.436348],[80.546556,16.4362117],[80.5467779,16.4360537],[80.5469826,16.4358754],[80.5471683,16.4356786],[80.5472926,16.4355175],[80.5471989,16.4355206],[80.5471985,16.4355206],[80.5470282,16.435526],[80.5470271,16.435526],[80.5468568,16.4355307],[80.546855,16.4355307],[80.5466848,16.4355342],[80.5466824,16.4355343],[80.5465122,16.4355363],[80.5465095,16.4355363],[80.5463394,16.4355366],[80.5463363,16.4355366],[80.5461663,16.435535],[80.5461632,16.435535],[80.5459932,16.4355315],[80.5459902,16.4355314],[80.5458202,16.435526],[80.5458175,16.4355259],[80.5456476,16.4355188],[80.5456453,16.4355187],[80.5454754,16.4355101],[80.5454736,16.43551],[80.5453038,16.4355004],[80.5453027,16.4355003],[80.5451329,16.43549],[80.5451325,16.4354899],[80.545,16.4354817],[80.545,16.4358],[80.545,16.43625],[80.545,16.4366651],[80.5452693,16.4366529],[80.5455421,16.4366145]]],[[[80.5475938,16.4349969],[80.5476873,16.4347465],[80.5477549,16.4344885],[80.547796,16.4342253],[80.547808,16.434],[80.54775,16.434],[80.5472,16.434],[80.54665,16.434],[80.5461,16.434],[80.54555,16.434],[80.545,16.434],[80.545,16.43445],[80.545,16.4349],[80.545,16.4349752],[80.545017,16.4349754],[80.5451662,16.4349848],[80.5453352,16.4349951],[80.5455036,16.4350046],[80.5456714,16.4350131],[80.5458388,16.4350201],[80.5460059,16.4350254],[80.5461729,16.4350288],[80.5463399,16.4350304],[80.5465071,16.4350301],[80.5466748,16.4350281],[80.5468429,16.4350246],[80.5470117,16.43502],[80.5471812,16.4350147],[80.5473513,16.4350091],[80.5473517,16.4350091],[80.547522,16.4350037],[80.5475231,16.4350037],[80.5475914,16.4350018],[80.5475938,16.4349969]]]]},"properties":{"zone_code":"R1","name":"Residential (core)","permissible_uses":["residential","commercial","public"]}},{"type":"Feature","geometry":{"type":"MultiPolygon","coordinates":[[[[80.5460119,16.4389207],[80.5465115,16.438801],[80.5469966,16.4386347],[80.5474624,16.4384233],[80.5479045,16.4381689],[80.5482562,16.4379184],[80.5481781,16.4379109],[80.5480089,16.4378948],[80.5478405,16.4378793],[80.5476726,16.4378648],[80.5475054,16.4378517],[80.5473385,16.4378403],[80.5471719,16.4378309],[80.5470053,16.4378234],[80.5468387,16.4378181],[80.5466717,16.4378147],[80.5465044,16.4378131],[80.5463364,16.4378131],[80.5461679,16.4378142],[80.5459986,16.4378162],[80.5458284,16.4378184],[80.5456582,16.4378205],[80.5456573,16.4378205],[80.5454871,16.4378221],[80.5454855,16.4378221],[80.5453154,16.4378226],[80.5453133,16.4378226],[80.5451432,16.4378218],[80.5451407,16.4378218],[80.545,16.4378199],[80.545,16.43805],[80.545,16.4385],[80.545,16.43895],[80.545,16.4390152],[80.5455025,16.4389925],[80.5460119,16.4389207]]],[[[80.549355,16.4367753],[80.5496206,16.4363498],[80.5498417,16.4359011],[80.5499534,16.435602],[80.5498881,16.4355968],[80.5498872,16.4355967],[80.5497172,16.4355827],[80.5495478,16.4355685],[80.5493789,16.4355547],[80.5492108,16.4355417],[80.5490433,16.4355299],[80.5488762,16.4355198],[80.5487096,16.4355115],[80.5485431,16.4355053],[80.5483766,16.4355013],[80.5482099,16.4354994],[80.548043,16.4354995],[80.5478755,16.4355015],[80.5477074,16.435505],[80.5475386,16.4355097],[80.547369,16.435515],[80.5472926,16.4355175],[80.5471683,16.4356786],[80.5469826,16.4358754],[80.5467779,16.4360537],[80.546556,16.4362117],[80.5463192,16.436348],[80.5460696,16.4364613],[80.5458098,16.4365504],[80.5455421,16.4366145],[80.5452693,16.4366529],[80.545,16.4366651],[80.545,16.4367],[80.545,16.43715],[80.545,16.4373138],[80.5450037,16.4373137],[80.5451469,16.4373156],[80.5453147,16.4373164],[80.545483,16.4373158],[80.5456519,16.4373143],[80.5458215,16.4373122],[80.5459916,16.43731],[80.5459921,16.43731],[80.5461623,16.437308],[80.5461636,16.437308],[80.5463337,16.4373069],[80.5463356,16.4373069],[80.5465058,16.4373069],[80.5465082,16.4373069],[80.5466783,16.4373085],[80.5466812,16.4373086],[80.5468513,16.437312],[80.5468545,16.4373121],[80.5470245,16.4373175],[80.5470278,16.4373177],[80.5471977,16.4373252],[80.547201,16.4373254],[80.5473709,16.4373351],[80.547374,16.4373353],[80.5475437,16.4373468],[80.5475464,16.437347],[80.5477161,16.4373603],[80.5477183,16.4373605],[80.5478791,16.4373744],[80.5478717,16.4373255],[80.5478681,16.4372501],[80.5478721,16.4371748],[80.5478837,16.4371003],[80.5479029,16.4370272],[80.5479294,16.4369562],[80.5479629,16.4368881],[80.5480032,16.4368235],[80.5480499,16.4367631],[80.5481025,16.4367073],[80.5481605,16.4366568],[80.5482234,16.436612],[80.5482905,16.4365734],[80.5483612,16.4365413],[80.5484348,16.4365161],[80.5485107,16.4364979],[80.548588,16.436487],[80.548666,16.4364835],[80.5487441,16.4364873],[80.5488213,16.4364986],[80.5488971,16.4365171],[80.5489706,16.4365426],[80.5490411,16.436575],[80.5491081,16.4366139],[80.5491707,16.436659],[80.5492285,16.4367097],[80.5492808,16.4367657],[80.5493214,16.4368188],[80.549355,16.4367753]]],[[[80.5501424,16.4349521],[80.5502191,16.4344609],[80.5502436,16.434],[80.54995,16.434],[80.5494,16.434],[80.54885,16.434],[80.5483,16.434],[80.547808,16.434],[80.547796,16.4342253],[80.5477549,16.4344885],[80.5476873,16.4347465],[80.5475938,16.4349969],[80.5475914,16.4350018],[80.5476933,16.434999],[80.5476952,16.4349989],[80.5478654,16.4349954],[80.5478678,16.4349953],[80.548038,16.4349933],[80.548041,16.4349933],[80.5482111,16.4349932],[80.5482144,16.4349932],[80.5483845,16.4349951],[80.548388,16.4349952],[80.548558,16.4349993],[80.5485615,16.4349994],[80.5487314,16.4350057],[80.5487348,16.4350059],[80.5489047,16.4350143],[80.5489077,16.4350144],[80.5490775,16.4350248],[80.54908,16.4350249],[80.5492498,16.4350368],[80.5492517,16.435037],[80.5494214,16.4350501],[80.5494227,16.4350502],[80.5495924,16.4350641],[80.5495928,16.4350641],[80.5497624,16.4350783],[80.5499315,16.4350923],[80.5500999,16.4351056],[80.5501022,16.4351058],[80.5501424,16.4349521]]],[[[80.5557635,16.4427617],[80.5556332,16.4427553],[80.5555551,16.4427439],[80.555534,16.4425708],[80.5555004,16.4423048],[80.5554572,16.4422586],[80.5553688,16.4421809],[80.555273,16.442112],[80.5551706,16.4420525],[80.5550627,16.442003],[80.5549503,16.4419639],[80.5548344,16.4419356],[80.5547162,16.4419185],[80.5545969,16.4419126],[80.5544775,16.441918],[80.5543593,16.4419346],[80.5542433,16.4419624],[80.5541307,16.442001],[80.5540225,16.4420501],[80.5539199,16.4421092],[80.5538238,16.4421777],[80.553735,16.4422549],[80.5536546,16.4423402],[80.5535832,16.4424327],[80.5535215,16.4425315],[80.5534702,16.4426356],[80.5534297,16.4427441],[80.5534004,16.4428559],[80.5533826,16.44297],[80.5533765,16.4430851],[80.5533821,16.4432003],[80.5533994,16.4433144],[80.5534281,16.4434264],[80.5534681,16.443535],[80.553519,16.4436394],[80.5535802,16.4437385],[80.5536512,16.4438312],[80.5537312,16.4439169],[80.5538196,16.4439945],[80.5539154,16.4440634],[80.5540178,16.4441229],[80.5541257,16.4441724],[80.5542382,16.4442115],[80.554354,16.4442398],[80.5544722,16.444257],[80.5545915,16.4442629],[80.5547109,16.4442575],[80.5548292,16.4442408],[80.5549451,16.444213],[80.5550577,16.4441744],[80.5551659,16.4441253],[80.5552685,16.4440663],[80.5553647,16.4439978],[80.5554534,16.4439205],[80.5555338,16.4438352],[80.5556052,16.4437428],[80.5556669,16.443644],[80.5557182,16.4435398],[80.5557587,16.4434313],[80.555788,16.4433195],[80.5558058,16.4432055],[80.5558119,16.4430903],[80.5558063,16.4429751],[80.5557891,16.442861],[80.5557635,16.4427617]]]]},"properties":{"zone_code":"R2","name":"Residential (peri-urban)","permissible_uses":["residential","agricultural","public"]}},{"type":"Feature","geometry":{"type":"MultiPolygon","coordinates":[]},"properties":{"zone_code":"AG","name":"Agricultural","permissible_uses":["agricultural"]}}]}