{"type":"FeatureCollection","features":[{"type":"Feature","geometry":{"type":"MultiPolygon","coordinates":[[[[80.545,16.434],[80.54555,16.434],[80.5461,16.434],[80.54665,16.434],[80.5472,16.434],[80.54775,16.434],[80.5483,16.434],[80.54885,16.434],[80.5494,16.434],[80.54995,16.434],[80.5505,16.434],[80.55105,16.434],[80.5516,16.434],[80.55215,16.434],[80.5527,16.434],[80.55325,16.434],[80.5538,16.434],[80.55435,16.434],[80.5549,16.434],[80.55545,16.434],[80.556,16.434],[80.55655,16.434],[80.5571,16.434],[80.55765,16.434],[80.5582,16.434],[80.55875,16.434],[80.5593,16.434],[80.55985,16.434],[80.5604,16.434],[80.56095,16.434],[80.5615,16.434],[80.56205,16.434],[80.5626,16.434],[80.56315,16.434],[80.5637,16.434],[80.56425,16.434],[80.5648,16.434],[80.56535,16.434],[80.5659,16.434],[80.56645,16.434],[80.567,16.434],[80.567,16.43445],[80.567,16.4349],[80.567,16.43535],[80.567,16.4358],[80.567,16.43625],[80.567,16.4367],[80.567,16.43715],[80.567,16.4376],[80.567,16.43805],[80.567,16.4385],[80.567,16.43895],[80.567,16.4394],[80.567,16.43985],[80.567,16.4403],[80.567,16.44075],[80.567,16.4412],[80.567,16.44165],[80.567,16.4421],[80.567,16.44255],[80.567,16.443],[80.567,16.44345],[80.567,16.4439],[80.567,16.44435],[80.567,16.4448],[80.567,16.44525],[80.567,16.4457],[80.567,16.44615],[80.567,16.4466],[80.567,16.44705],[80.567,16.4475],[80.567,16.44795],[80.567,16.4484],[80.567,16.44885],[80.567,16.4493],[80.567,16.44975],[80.567,16.4502],[80.567,16.45065],[80.567,16.4511],[80.567,16.45155],[80.567,16.452],[80.56645,16.452],[80.5659,16.452],[80.56535,16.452],[80.5648,16.452],[80.56425,16.452],[80.5637,16.452],[80.56315,16.452],[80.5626,16.452],[80.56205,16.452],[80.5615,16.452],[80.56095,16.452],[80.5604,16.452],[80.55985,16.452],[80.5593,16.452],[80.55875,16.452],[80.5582,16.452],[80.55765,16.452],[80.5571,16.452],[80.55655,16.452],[80.556,16.452],[80.55545,16.452],[80.5549,16.452],[80.55435,16.452],[80.5538,16.452],[80.55325,16.452],[80.5527,16.452],[80.55215,16.452],[80.5516,16.452],[80.55105,16.452],[80.5505,16.452],[80.54995,16.452],[80.5494,16.452],[80.54885,16.452],[80.5483,16.452],[80.54775,16.452],[80.5472,16.452],[80.54665,16.452],[80.5461,16.452],[80.54555,16.452],[80.545,16.452],[80.545,16.45155],[80.545,16.4511],[80.545,16.45065],[80.545,16.4502],[80.545,16.44975],[80.545,16.4493],[80.545,16.44885],[80.545,16.4484],[80.545,16.44795],[80.545,16.4475],[80.545,16.44705],[80.545,16.4466],[80.545,16.44615],[80.545,16.4457],[80.545,16.44525],[80.545,16.4448],[80.545,16.44435],[80.545,16.4439],[80.545,16.44345],[80.545,16.443],[80.545,16.44255],[80.545,16.4421],[80.545,16.44165],[80.545,16.4412],[80.545,16.44075],[80.545,16.4403],[80.545,16.43985],[80.545,16.4394],[80.545,16.43895],[80.545,16.4385],[80.545,16.43805],[80.545,16.4376],[80.545,16.43715],[80.545,16.4367],[80.545,16.43625],[80.545,16.4358],[80.545,16.43535],[80.545,16.4349],[80.545,16.43445],[80.545,16.434]]]]},"properties":{"name":"Mangalagiri (R) \u2014 demo"}}]}